{
"type": "FeatureCollection",
"name": "carreadores",
"crs": { "type": "name", "properties": { "name": "urn:ogc:def:crs:OGC:1.3:CRS84" } },
"features": [
{"type":"Feature","properties":{"id":1,"Area":6.45},"geometry":{"type":"MultiPolygon","coordinates":[[[[-47.604819985584683,-19.44126352579503],[-47.604526047701022,-19.441176390058764],[-47.603526891258518,-19.440876643126014],[-47.603462991718594,-19.441012574874588],[-47.603449050000791,-19.441023031162938],[-47.603389797700132,-19.441017222113853],[-47.603353781595807,-19.440999794966601],[-47.603334611733835,-19.440980044199716],[-47.603332869019113,-19.440938799951219],[-47.603475771626591,-19.440650671116639],[-47.603447307286089,-19.440640795733191],[-47.603307890108063,-19.440910335610702],[-47.603298014724629,-19.440946351715027],[-47.603304985583527,-19.440973073340817],[-47.603318927301331,-19.440999214061694],[-47.603336354448587,-19.441021288448216],[-47.603159759356423,-19.441031163831656],[-47.603039512040375,-19.441021869353122],[-47.602989554218254,-19.440995728632242],[-47.602973869785728,-19.440941704475755],[-47.602998848696792,-19.440884775794729],[-47.603026732132392,-19.440771499337586],[-47.60307610904961,-19.440600713294511],[-47.603089469862503,-19.440532747420225],[-47.603058681902354,-19.440525195656413],[-47.603046482899288,-19.440567601714726],[-47.603033702991297,-19.440644281162641],[-47.60299768688698,-19.440772080242493],[-47.602957023543389,-19.440895232083079],[-47.602941920015766,-19.44098817686843],[-47.602927978297963,-19.4410276784022],[-47.60288615314456,-19.441035811070918],[-47.602854784279501,-19.441025354782568],[-47.602840842561697,-19.440967264291725],[-47.602814120935911,-19.440963778862276],[-47.60280366464756,-19.441000956776413],[-47.602812959126098,-19.441036972880738],[-47.602838518942065,-19.441062532696709],[-47.602878020475842,-19.441078798034145],[-47.602919264724342,-19.441074150794879],[-47.602941339110863,-19.441049171883815],[-47.602963994402295,-19.441039877405281],[-47.603048225614017,-19.44104452464455],[-47.603178929218409,-19.441053819123084],[-47.603292786580461,-19.441046267359276],[-47.60340432032288,-19.44104510554946],[-47.603468800767715,-19.441048010074002],[-47.603786555752613,-19.441127013141546],[-47.603907383973571,-19.441147925718251],[-47.604696590063028,-19.441431258303325],[-47.604705547317749,-19.441438378172464],[-47.604722974465005,-19.44145348170008],[-47.604728202609181,-19.441465099798251],[-47.604727650803213,-19.441474112629049],[-47.60404144862401,-19.442817754021842],[-47.604039546612555,-19.442821436221699],[-47.603878881309619,-19.442745979993163],[-47.602313794396437,-19.442016879788149],[-47.602093308711204,-19.441943040319792],[-47.602085770763196,-19.441942655169164],[-47.602085071789006,-19.441942184121341],[-47.602093394771188,-19.441942696079824],[-47.601794938738259,-19.441854226413774],[-47.601474795588743,-19.441756806509133],[-47.601217992589241,-19.441683483400698],[-47.60096876286854,-19.44160706213275],[-47.600811445213353,-19.441567130299052],[-47.600774267299215,-19.441545098942527],[-47.600744318423935,-19.441505167108826],[-47.600665143236419,-19.441345784013958],[-47.60058114868967,-19.441160582923164],[-47.600444141191275,-19.440878994647569],[-47.600365310243703,-19.44070721891465],[-47.600263070979821,-19.44049688830782],[-47.600147406358062,-19.440259706985223],[-47.600051707653158,-19.440060047816708],[-47.599993875342278,-19.439910991920218],[-47.599988910324704,-19.439912115469454],[-47.599979304982782,-19.439881553017877],[-47.599939803449011,-19.43983972786447],[-47.599886360197431,-19.43979906452088],[-47.599809680749523,-19.439738650410401],[-47.59972370682307,-19.439682883539191],[-47.599551758970179,-19.439589938753848],[-47.599423959890323,-19.43954114274154],[-47.599307778908639,-19.439478405011428],[-47.599140478295006,-19.439379651176999],[-47.599062637037278,-19.439344796882491],[-47.598981310350098,-19.439313428017439],[-47.598860482129147,-19.439280897342567],[-47.598766375533977,-19.439249528477511],[-47.598662974460282,-19.439229777710626],[-47.598559573386581,-19.439218159612455],[-47.598384140104237,-19.439216997802639],[-47.598185470625552,-19.439222806851724],[-47.598023979061011,-19.439219321422271],[-47.597934519705113,-19.439220483232088],[-47.597763733662035,-19.439226292281177],[-47.597588300379691,-19.439242557618613],[-47.597423323385691,-19.43925417571678],[-47.597237433814996,-19.439275088293485],[-47.59707129501119,-19.43926579381495],[-47.596912127066282,-19.439241395808796],[-47.596713457587597,-19.439189114367039],[-47.596515949918732,-19.439137994735098],[-47.596205746697628,-19.439067124336269],[-47.596072138568694,-19.439042726330115],[-47.5960454169429,-19.439043888139931],[-47.595945501298651,-19.439045049949751],[-47.595816540408983,-19.439041564520299],[-47.59570152123711,-19.439047373569384],[-47.595626003599016,-19.439018328323961],[-47.595593472924143,-19.438966046882204],[-47.595566751298357,-19.438925383538614],[-47.595563265868904,-19.438882396575391],[-47.595570236727802,-19.438819658845279],[-47.595609157356684,-19.438752854780812],[-47.595673056896601,-19.438661071805281],[-47.595787495163563,-19.438500161145647],[-47.595849071083855,-19.438419996268284],[-47.595891477142168,-19.438366553016706],[-47.595938530439753,-19.438320661528941],[-47.596007827983364,-19.4382791454486],[-47.596022461180887,-19.438276266786794],[-47.596014304972435,-19.438224210985759],[-47.596001714575394,-19.438225848349649],[-47.595971642019542,-19.438248048415382],[-47.595881020853824,-19.438317757004395],[-47.595824092172798,-19.438386303783588],[-47.595757869013241,-19.438472277710037],[-47.595699778522395,-19.438548957157948],[-47.595637040792283,-19.438631445654945],[-47.595573141252359,-19.438734846728646],[-47.595530154289136,-19.438819658845276],[-47.5955138889517,-19.438906794581541],[-47.595532477908769,-19.438963723262567],[-47.595563846773828,-19.439011357465059],[-47.595601024687966,-19.439042726330111],[-47.595676542326061,-19.439074095195167],[-47.595761354442693,-19.439076418814803],[-47.595851975608404,-19.439070609765718],[-47.595941434964303,-19.439069447955902],[-47.596015790792585,-19.439070609765718],[-47.59610176471903,-19.439082227863885],[-47.596236534657784,-19.439099655011137],[-47.596348068400204,-19.439126376636924],[-47.596495618246941,-19.439163554551065],[-47.596694287725626,-19.439206541514288],[-47.596831381284012,-19.43923907218916],[-47.596926649688996,-19.439262308385498],[-47.597043992480501,-19.439279735532747],[-47.59719502775669,-19.439294839060366],[-47.597328635885638,-19.439292515440737],[-47.597441331437878,-19.439283220962203],[-47.597619088339854,-19.439270441054216],[-47.597803816100736,-19.439250690287331],[-47.597949042327841,-19.439250690287331],[-47.598041987113191,-19.439244881238245],[-47.598154682665424,-19.439248366667698],[-47.598270863647109,-19.439247204857882],[-47.598388206438607,-19.439244881238245],[-47.59848347484359,-19.439247204857878],[-47.598574096009308,-19.439243719428429],[-47.598653099076849,-19.439251852097147],[-47.598719322236413,-19.439273926483665],[-47.598857577604619,-19.43930878077817],[-47.598974920396124,-19.439345958692307],[-47.599069026991288,-19.43939010746535],[-47.599189855212238,-19.439454007005281],[-47.59930487438411,-19.43951325930594],[-47.599395495549821,-19.439557408078979],[-47.599487278525352,-19.439600395042202],[-47.599598812267772,-19.439656161913412],[-47.599710346010191,-19.439716576023887],[-47.599820717942791,-19.439789770042349],[-47.599871837574739,-19.439846698723375],[-47.599879970243464,-19.439865287680444],[-47.599831755136066,-19.439865287680444],[-47.599730677681997,-19.439869354014803],[-47.599527360964046,-19.439861802250991],[-47.599401885503823,-19.439855993201906],[-47.599293256285947,-19.439853669582273],[-47.599167780825731,-19.439854831392086],[-47.599092263187636,-19.439857155011719],[-47.599019650074077,-19.439864125870621],[-47.598962140488148,-19.439868773109886],[-47.598951103294887,-19.439869354014796],[-47.598958074153785,-19.439903627404394],[-47.599128279291953,-19.439887362066958],[-47.599234584890198,-19.439882714827689],[-47.599380392022212,-19.439886781162048],[-47.599491925764639,-19.439890847496407],[-47.599579642405814,-19.439892009306224],[-47.599670263571532,-19.439893752020954],[-47.599757980212701,-19.439896656545496],[-47.599820717942812,-19.439891428401321],[-47.599882874768014,-19.439896075640586],[-47.599931670780322,-19.439906531928941],[-47.599938629449376,-19.439923493684773],[-47.599834148007467,-19.439947137114512],[-47.599656175955531,-19.439990855587624],[-47.599396274796511,-19.440039049180019],[-47.599081983726073,-19.440098946930576],[-47.598758053937161,-19.440156090761569],[-47.598439287747418,-19.440220119391469],[-47.598080933963935,-19.440296540659414],[-47.597806574727194,-19.440346799691493],[-47.597592113241014,-19.440381223686067],[-47.597454073022782,-19.440441465676564],[-47.597322917603464,-19.440504117346684],[-47.597130143233869,-19.440604979650779],[-47.597036165728682,-19.4406511078035],[-47.597008626533025,-19.440670385240459],[-47.596994512695254,-19.440693449316822],[-47.596981775817262,-19.440719611552698],[-47.596978333417802,-19.440747494988301],[-47.596983497016993,-19.440764018505696],[-47.60258294700396,-19.44586021120703],[-47.604823906020606,-19.441451809917233],[-47.604823906020599,-19.441440794238968],[-47.605417031447089,-19.440485872629555],[-47.605828742422169,-19.439834570652263],[-47.606128919654822,-19.439348503848908],[-47.606496567916849,-19.438768803780324],[-47.606498358478788,-19.438765921393106],[-47.60650088925005,-19.438765864200537],[-47.606953546444714,-19.439012697781902],[-47.607085992763828,-19.439088602689932],[-47.607295893070727,-19.439192391033565],[-47.60759641454333,-19.439380604223881],[-47.607981360862631,-19.439664085819178],[-47.608204428347449,-19.439815895635238],[-47.608667603194412,-19.440146624163081],[-47.60884807098595,-19.44026977600366],[-47.608949535709954,-19.440126486126257],[-47.610568324054682,-19.437810999161396],[-47.612230873902554,-19.435406827380525],[-47.609630371155134,-19.433711621747978],[-47.609630937167573,-19.433709810508162],[-47.61115697436194,-19.431236317408217],[-47.61202213540551,-19.429826267560582],[-47.611875747368586,-19.429847954677161],[-47.611875433315994,-19.429848793955632],[-47.611874821551311,-19.4298424723872],[-47.611233502532464,-19.429941807126536],[-47.610717658973819,-19.430028942862794],[-47.609942150921135,-19.430210185194206],[-47.609522156672377,-19.430309519933537],[-47.609311288190632,-19.430351345086944],[-47.609081249846916,-19.430457650685177],[-47.608830298926499,-19.430581383430663],[-47.608464328834216,-19.430776567479874],[-47.608232547775771,-19.430902042940087],[-47.607641767483948,-19.431283697464892],[-47.606868002145987,-19.431762944014306],[-47.606384398809759,-19.432206900590536],[-47.606196621298125,-19.432379429348323],[-47.60606156090693,-19.43249488419886],[-47.60596876134781,-19.432575484754899],[-47.60585635624804,-19.432678304923684],[-47.605769220511782,-19.432769361768074],[-47.605662479234859,-19.43286041861246],[-47.605537875132015,-19.432970645318825],[-47.605392358452463,-19.433104398673979],[-47.605290845319722,-19.433198069590457],[-47.605194560331157,-19.43328607668408],[-47.605111345703037,-19.43337103402693],[-47.605069084870948,-19.433394996354401],[-47.605015060714464,-19.43344814915352],[-47.604968878774244,-19.433522650208019],[-47.604900041542606,-19.433602379406693],[-47.604862573176014,-19.433655967884491],[-47.604825540488108,-19.433713913149102],[-47.604791557550968,-19.433785364452834],[-47.604741890181302,-19.433853766005797],[-47.604684816274073,-19.433949615315687],[-47.604682637880664,-19.434027166120956],[-47.604684816274073,-19.434101231496772],[-47.604652576051656,-19.434173118479183],[-47.604586352892099,-19.434234984851926],[-47.604517515660454,-19.434300336654122],[-47.604438222140459,-19.434357410561372],[-47.6043789698398,-19.434406206573676],[-47.604312311001564,-19.434486807129712],[-47.604290962746184,-19.434556515718718],[-47.60427266424157,-19.434653672064645],[-47.604276585349702,-19.434755620876068],[-47.604284863244644,-19.434842756612323],[-47.604270485848161,-19.434924228525727],[-47.604252623022234,-19.43498609489847],[-47.604219511442452,-19.434984787862426],[-47.604157209391026,-19.43494906221056],[-47.604094035982243,-19.434915950630781],[-47.60402911985873,-19.434891552624631],[-47.604000800744444,-19.434936427528804],[-47.604055260579607,-19.434947319495834],[-47.604144574709274,-19.434979124039568],[-47.604190756649487,-19.435018335120883],[-47.604217333049036,-19.435034455232088],[-47.604205134045955,-19.435067566811867],[-47.60412584052596,-19.435172129695374],[-47.603972481630159,-19.435310675516021],[-47.603795596085554,-19.43551195906678],[-47.60365879297963,-19.435686230539293],[-47.603574271315459,-19.435852659795543],[-47.603484521507113,-19.436044358415309],[-47.603463608930426,-19.43626611886409],[-47.603394771698788,-19.437069510352384],[-47.603398257128234,-19.437484276456967],[-47.603399128485599,-19.437983564225721],[-47.603400871200321,-19.438400944402392],[-47.603417426990205,-19.438827038152692],[-47.603420144747481,-19.439375902397519],[-47.60342142204486,-19.439455094835196],[-47.603422060693539,-19.439499161594874],[-47.603423337990918,-19.43954514430062],[-47.603451438533327,-19.439558555923131],[-47.603581243879773,-19.439616034305317],[-47.60377468350886,-19.439703623659437],[-47.604101442519827,-19.439860467984701],[-47.604398575380465,-19.440031254027765],[-47.605167983931615,-19.440456476420703],[-47.605242049307435,-19.440493944787292],[-47.605277774959298,-19.440527927724432],[-47.605289684168923,-19.440550492542666],[-47.604859976464752,-19.441253771921843],[-47.604819985584683,-19.44126352579503]],[[-47.605277992798591,-19.440451248276499],[-47.60524008875332,-19.440434256807929],[-47.605179093737938,-19.440405066336282],[-47.60502573484213,-19.44032751553101],[-47.604722502479952,-19.440152372701135],[-47.604410120865474,-19.439967644940268],[-47.604068548779352,-19.439790759395667],[-47.603822826003103,-19.439666155292816],[-47.603819696274861,-19.439664972285488],[-47.603812042955674,-19.439647230500103],[-47.603814221349076,-19.439611504848237],[-47.603835133925784,-19.439552252547582],[-47.603888286724896,-19.439440283126487],[-47.603911813373685,-19.439371445894846],[-47.603978036533235,-19.439242049326509],[-47.604039902905981,-19.439120930653107],[-47.604086520524881,-19.439006347159928],[-47.604158407507285,-19.438880436021037],[-47.604218966843987,-19.438770209314672],[-47.60426253471212,-19.438663032359077],[-47.604300438757392,-19.438568925763917],[-47.604346185018926,-19.438444321661066],[-47.604401080532767,-19.438274842654046],[-47.604435499148593,-19.438167665698447],[-47.604476017265945,-19.438036090736698],[-47.604507386130997,-19.43792760674506],[-47.604539190674728,-19.43784395643825],[-47.604587986687037,-19.437692340257168],[-47.604633732948564,-19.437546387898934],[-47.604689064141084,-19.437423962189492],[-47.604741345582838,-19.437312864125762],[-47.604807568742402,-19.437184774593465],[-47.604866385364367,-19.437056249382486],[-47.60492999445183,-19.436957350321833],[-47.605003624148964,-19.436833617576351],[-47.60507638248874,-19.43672164815526],[-47.605148705149837,-19.436624491809333],[-47.605223206204329,-19.436538227430436],[-47.605312084655317,-19.436430179117476],[-47.605405755571795,-19.436312981552213],[-47.605479820947615,-19.4362341237109],[-47.605574798900129,-19.436126946755302],[-47.605659756242986,-19.436039811019043],[-47.605763883447814,-19.435915206916196],[-47.605867139295277,-19.435802366137743],[-47.605943383064499,-19.43572045854566],[-47.606023983620545,-19.435643779097752],[-47.606024963897468,-19.435640838266977],[-47.606063793760249,-19.435607917296363],[-47.606542168952309,-19.435746463117013],[-47.607108551237985,-19.435918991874804],[-47.607948539735531,-19.436181270440947],[-47.607955690007458,-19.436192078991528],[-47.607960964645926,-19.436229001460852],[-47.607948572007885,-19.436299226409776],[-47.607924475211682,-19.436349485441852],[-47.607799171871434,-19.436556717889175],[-47.607616036220314,-19.436855518162051],[-47.607481094161599,-19.437077897166983],[-47.607242191639259,-19.437444856949117],[-47.606990896478884,-19.437842798326365],[-47.60686352769897,-19.43803832661553],[-47.606692096206018,-19.438313030092214],[-47.606559908066863,-19.438556063493884],[-47.60644217800543,-19.438717856268369],[-47.606351987139647,-19.438885845361877],[-47.606270746512472,-19.439012525661902],[-47.606163343649413,-19.439188776514111],[-47.606100003499392,-19.439288606098369],[-47.606038728789059,-19.439376043044582],[-47.605909983049365,-19.439585340931572],[-47.605711012360729,-19.439901353201737],[-47.605607740377017,-19.440060392056662],[-47.605509976232433,-19.440206349793645],[-47.605487944875904,-19.440271066903438],[-47.605432178004698,-19.440320637455613],[-47.605346118018268,-19.440459021913792],[-47.605345269005873,-19.440460397528806],[-47.605340294850016,-19.440460397528806],[-47.60531415412914,-19.440457783456718],[-47.605277992798591,-19.440451248276499]],[[-47.603511315745976,-19.439508439610194],[-47.60349563131345,-19.439469228528878],[-47.603483432310377,-19.439405619441409],[-47.603479075523559,-19.439358566143831],[-47.603482560953012,-19.439290600269551],[-47.603476461451471,-19.439182551956595],[-47.603469490592573,-19.439078860430449],[-47.603463391091033,-19.439008280484078],[-47.603464262448398,-19.438938571895072],[-47.603467747877851,-19.438888033168041],[-47.603467367057135,-19.438881368805482],[-47.603482234193912,-19.438851027710022],[-47.603527109098088,-19.43876868443926],[-47.60355412117633,-19.438683727096411],[-47.603595074972368,-19.438581342606305],[-47.60364169259126,-19.438453688752688],[-47.60368656749543,-19.438333877115337],[-47.603725778576745,-19.43819228154392],[-47.603739284615862,-19.438109066915793],[-47.603749740904227,-19.438005811068329],[-47.603756711763126,-19.437909961758443],[-47.603767603730162,-19.437801913445487],[-47.603779802733229,-19.437718263138677],[-47.603797229880485,-19.437646811834945],[-47.603828163066851,-19.437558369062646],[-47.603866938469487,-19.437480818257377],[-47.603912249052343,-19.437359699583979],[-47.603968451602221,-19.437215925619153],[-47.603972372710352,-19.437169308000257],[-47.603997642073864,-19.437051239077629],[-47.604016376257157,-19.436954082731702],[-47.60404120994199,-19.436849955526878],[-47.604067786341552,-19.436758027325123],[-47.604097848170561,-19.436698775024468],[-47.604127909999562,-19.436627759399418],[-47.604171477867688,-19.436535395518984],[-47.604207639198236,-19.436467865323387],[-47.604252514102406,-19.436378551193719],[-47.604301310114714,-19.436262224985814],[-47.6043784252413,-19.436141977669781],[-47.604448133830303,-19.436053970576157],[-47.604500850950743,-19.435992539882097],[-47.604560974608752,-19.435926752401226],[-47.604626326410944,-19.435875777995516],[-47.604707362645662,-19.435796920154203],[-47.604805826027636,-19.435709348739266],[-47.604892961763895,-19.435635283363446],[-47.604994474896635,-19.435549454663235],[-47.6050232296896,-19.435530284801256],[-47.60510818703245,-19.435439663635549],[-47.605203371583968,-19.435354915986615],[-47.605206378115454,-19.43535609501857],[-47.605241232409959,-19.435336925156594],[-47.605465171252142,-19.435410990532414],[-47.605737034749268,-19.435495512196592],[-47.605974043951903,-19.435573934359223],[-47.606006284174313,-19.43559658965065],[-47.605995827885963,-19.435621859014162],[-47.605996563834694,-19.435622387977315],[-47.605988040129333,-19.435630708737314],[-47.605907875251987,-19.435708259542579],[-47.605817036246933,-19.435798009350929],[-47.605513803884755,-19.436145463099255],[-47.605404012857072,-19.43627268127419],[-47.605268081108505,-19.436412098452202],[-47.605132149359946,-19.436579399065813],[-47.604975305034685,-19.436800723835908],[-47.604886426583704,-19.436957568161169],[-47.604743523976246,-19.437229431658288],[-47.604652902810543,-19.437419387563327],[-47.604543111782853,-19.437692993775173],[-47.604475145908573,-19.437933488407243],[-47.604408922749016,-19.438168754895138],[-47.604351413163087,-19.438349997226553],[-47.60427299100045,-19.43857306471137],[-47.604191083408367,-19.438747336183884],[-47.604086520524859,-19.438947748377277],[-47.603992413929696,-19.439137704282313],[-47.60391050633762,-19.439315461184279],[-47.603819885171909,-19.439515873377673],[-47.603776317303783,-19.439609979972829],[-47.603770653480929,-19.439625664405355],[-47.603755840405761,-19.439635685015027],[-47.60372839264884,-19.439629149834808],[-47.603726982149816,-19.439629286334714],[-47.603566646938503,-19.439547215012826],[-47.603533535358729,-19.439519331577223],[-47.603511315745976,-19.439508439610194]],[[-47.60346339109104,-19.438762557707829],[-47.603454677517419,-19.438528162577303],[-47.603455548874784,-19.43846629620456],[-47.603454677517419,-19.43840268711709],[-47.603451192087967,-19.43833820667226],[-47.603447706658521,-19.438277647335564],[-47.60345424183874,-19.438251942293366],[-47.603463826769726,-19.438221009106996],[-47.603470361949945,-19.438186590491174],[-47.603464262448412,-19.438159578412936],[-47.603442478514346,-19.438155221626122],[-47.603437686048849,-19.438131694977333],[-47.603439428763579,-19.438083334643707],[-47.603442914193032,-19.43804673763448],[-47.603440735799623,-19.438000555694263],[-47.603440735799623,-19.437967444114488],[-47.60344378555039,-19.437921262174271],[-47.603446399622477,-19.437871159125923],[-47.603447270979842,-19.437810164110545],[-47.603444656907755,-19.437759189704835],[-47.603445092586433,-19.437716057515388],[-47.603445963943798,-19.437645477569021],[-47.603444221229076,-19.437603652415618],[-47.603444656907755,-19.437569233799795],[-47.603446399622477,-19.437506060391016],[-47.603445963943798,-19.437451600555853],[-47.603446399622477,-19.437395833684651],[-47.603449885051923,-19.437309569305754],[-47.603446399622477,-19.437259901936088],[-47.603450320730609,-19.437195857169939],[-47.603456855910828,-19.437118742043353],[-47.60346077701896,-19.437075174175224],[-47.603463391091047,-19.437018535946656],[-47.603472104664668,-19.43691179466974],[-47.603474718736756,-19.436864741372162],[-47.603473847379398,-19.436815074002496],[-47.603481253916975,-19.436729680980971],[-47.603486917739829,-19.436688291506247],[-47.603487353418515,-19.436645594995483],[-47.603490838847961,-19.436606383914164],[-47.603508265995217,-19.436545388898782],[-47.603580588656314,-19.436401614933956],[-47.603596708767519,-19.4363889802522],[-47.603618492701585,-19.436369374711543],[-47.603646811815864,-19.436316221912428],[-47.603666417356521,-19.436275703795069],[-47.6036855872185,-19.436253048503641],[-47.603706499795202,-19.436218194209136],[-47.603760959630371,-19.436117988112439],[-47.603804091819811,-19.436025624232006],[-47.603846352651892,-19.435950251820145],[-47.603879899910353,-19.435886207053997],[-47.603932181352114,-19.435807784891363],[-47.603946558748596,-19.435765524059278],[-47.60397749193497,-19.435721956191149],[-47.60404197237979,-19.435650069208737],[-47.604081183461105,-19.435596916409619],[-47.604149585014071,-19.435525465105886],[-47.60419010313143,-19.435491046490064],[-47.604221036317803,-19.435457499231607],[-47.604340847955164,-19.435368185101943],[-47.604446717874708,-19.435287148867221],[-47.604511198319543,-19.435236174461512],[-47.604553023472945,-19.43519522066547],[-47.604576550121735,-19.43517212969536],[-47.604576344579776,-19.435171033471594],[-47.604577258099667,-19.435171367257706],[-47.604619954610435,-19.435154811467815],[-47.604683563697904,-19.435169624542979],[-47.605157582103153,-19.435322112081433],[-47.605161938889964,-19.435338667871321],[-47.605163327615557,-19.435339212469593],[-47.60514826947113,-19.435354270614017],[-47.605051113125207,-19.435459269176206],[-47.60497399799862,-19.435538998374881],[-47.604867256721697,-19.435630055219271],[-47.60479188430984,-19.435694099985419],[-47.604657259597317,-19.435810861872007],[-47.604584065578862,-19.435881006139695],[-47.604481245410078,-19.435971627305403],[-47.604394981031184,-19.436055277612208],[-47.604361869451402,-19.43609623140825],[-47.604330064907671,-19.436143284705828],[-47.604297824685254,-19.436204279721206],[-47.604242057814048,-19.436321041607791],[-47.604208074876908,-19.436406434629323],[-47.604177141690542,-19.436479628647778],[-47.604145337146804,-19.436548465879422],[-47.604110918530985,-19.43661599607502],[-47.604075192879122,-19.436698339345782],[-47.604054280302421,-19.43674844239413],[-47.6040268325455,-19.436829042950166],[-47.604007227004843,-19.436904415362029],[-47.603986314428141,-19.437015949104442],[-47.603970194316929,-19.437100906447291],[-47.603951024454958,-19.437172357751024],[-47.603939696809249,-19.437228995979591],[-47.603921398304635,-19.437293476424422],[-47.603890465118269,-19.437367977478917],[-47.603842540463326,-19.437481689614735],[-47.603814221349047,-19.437542248951434],[-47.603785466556076,-19.437610650504396],[-47.603769346444864,-19.437660317874062],[-47.603759325835199,-19.437703885742192],[-47.603747562510804,-19.437757909898671],[-47.603739284615855,-19.43780931998306],[-47.603737541901133,-19.437865522532949],[-47.603734927829045,-19.437932181371185],[-47.603728392648826,-19.437987076885026],[-47.603724035862015,-19.438031516110517],[-47.603714015252343,-19.438103838771614],[-47.603703558963993,-19.438151763426553],[-47.603693974033007,-19.438202302153584],[-47.603674368492349,-19.43826155445424],[-47.603649534807516,-19.438348690190494],[-47.603622522729275,-19.438431469139939],[-47.603597253365763,-19.438504663158398],[-47.603561527713893,-19.438604433576412],[-47.603524495025987,-19.438708125102558],[-47.603505760842687,-19.438769120117936],[-47.603500097019833,-19.438771298511341],[-47.603490938354831,-19.438773588177593],[-47.60349127452664,-19.438772142638818],[-47.603473847379391,-19.438778242140355],[-47.60346339109104,-19.438762557707829]],[[-47.606725444450774,-19.438490270634301],[-47.606999631567533,-19.438106098854881],[-47.607084830954101,-19.437989917873203],[-47.607111165309945,-19.437921758363952],[-47.607162284941879,-19.437810224621543],[-47.607211855494064,-19.437735868793268],[-47.607261426046243,-19.437656865725724],[-47.60728930948185,-19.437585608056963],[-47.607360567150614,-19.437472525234796],[-47.607698266537362,-19.436948936277364],[-47.607946893838147,-19.436563989958067],[-47.608127724762376,-19.436289864098402],[-47.608130072519231,-19.43629135192106],[-47.608594796445949,-19.436578706215748],[-47.6089743209861,-19.436828882596295],[-47.609339129268569,-19.437064342719161],[-47.609720977428353,-19.437306773700932],[-47.610054804115705,-19.437524419406611],[-47.610492419146695,-19.437821068179829],[-47.610276322520775,-19.438122364192314],[-47.610038538778269,-19.438462387198697],[-47.609825540311853,-19.43877607584923],[-47.609626483563254,-19.43905413566538],[-47.609552902274856,-19.439114549775852],[-47.609483193685847,-19.439164120328037],[-47.609465379268663,-19.439194327383273],[-47.609442917612199,-19.439269457751426],[-47.609413485096844,-19.43935155897848],[-47.609282587857486,-19.439543644868191],[-47.609099796446309,-19.439808537506419],[-47.608946437550493,-19.440026183212098],[-47.608870532642463,-19.440136167874751],[-47.608841874666979,-19.440173345788889],[-47.608800049513576,-19.440183414807301],[-47.608751253501268,-19.440148560512799],[-47.608302020372101,-19.439822479224219],[-47.607817158408572,-19.439476259898818],[-47.607465517304028,-19.439229181677778],[-47.607388063316243,-19.439171091186939],[-47.607289696751749,-19.439124618794267],[-47.607144857794601,-19.439055684745139],[-47.606911721291361,-19.438946474622359],[-47.606572044362117,-19.43874929255005],[-47.606569889008263,-19.438746873275313],[-47.606568908731226,-19.438740773773773],[-47.606568918030312,-19.438740712907048],[-47.606725444450774,-19.438490270634301]],[[-47.610810367766554,-19.434545539036353],[-47.61123868831902,-19.434815078913847],[-47.611580260405155,-19.435045117257573],[-47.611601947521734,-19.435094687809755],[-47.611607369300877,-19.435184534435589],[-47.611673205190499,-19.435241075846672],[-47.611748335558651,-19.435258115723986],[-47.61184282942375,-19.435228683208624],[-47.612101525742951,-19.435399856521634],[-47.612119340160149,-19.435444005294674],[-47.61210384936259,-19.43550287032539],[-47.61206124966931,-19.435574127994151],[-47.611779317153761,-19.435980761430027],[-47.611546180650528,-19.436315362657261],[-47.611347123901915,-19.436609687810847],[-47.611154263472336,-19.436900914804923],[-47.611064416846503,-19.43700470314856],[-47.611015620834195,-19.43705814640013],[-47.610967599361771,-19.437137149467674],[-47.610930421447634,-19.437220025234602],[-47.61079487696901,-19.437393522167245],[-47.610663979729651,-19.437577862658177],[-47.610595820220396,-19.437683200081565],[-47.610561740465769,-19.437724250695094],[-47.610529984330768,-19.437746712351551],[-47.610488933717242,-19.43774826143131],[-47.609382116231792,-19.437032586584166],[-47.608108772672594,-19.436197632595839],[-47.608108561291012,-19.4361978728843],[-47.608105093608202,-19.436176720019137],[-47.608113613546863,-19.436141478454694],[-47.608174802197212,-19.436046210049714],[-47.608235603577619,-19.435944745325717],[-47.608288659559257,-19.435851026000499],[-47.608370760786308,-19.435721290570953],[-47.608468740080859,-19.435562122626052],[-47.60874099084792,-19.43512876756439],[-47.609122064467826,-19.434512233821618],[-47.60929401232071,-19.434224104987056],[-47.609486098210411,-19.433909641796646],[-47.609566650357714,-19.433800431673866],[-47.609580825523238,-19.433792753459205],[-47.609580398440528,-19.43379346081495],[-47.609649332489653,-19.433798108054219],[-47.610028082489933,-19.434042862655623],[-47.610446334023969,-19.434306206214092],[-47.610810367766554,-19.434545539036353]],[[-47.605289051788596,-19.435316799712105],[-47.605286914326449,-19.435314737248632],[-47.605278991228936,-19.435298391797655],[-47.605267373130765,-19.43527864103077],[-47.605278216689058,-19.435256566644252],[-47.605363803345561,-19.435161685509215],[-47.605474562548103,-19.435057897165578],[-47.605570218223015,-19.434944039803533],[-47.605657741229216,-19.434827471551912],[-47.605769662241563,-19.434701608821761],[-47.605910241229395,-19.434547475386069],[-47.606125563315437,-19.434322858821492],[-47.606240195217367,-19.434190412502378],[-47.606407495830972,-19.434024660968515],[-47.606620494297388,-19.433818633361007],[-47.606780049512238,-19.433660627225922],[-47.606981429880477,-19.433471639495725],[-47.607283500432843,-19.43318660882067],[-47.607414397672208,-19.433069653299114],[-47.607570854727534,-19.432955021397188],[-47.607831100126496,-19.432803211581128],[-47.60806733478924,-19.432700972317249],[-47.608247028040907,-19.432630489188366],[-47.608476291844752,-19.432563104218989],[-47.608589374666927,-19.432542966182169],[-47.608873630802094,-19.432443825077797],[-47.609110640004729,-19.432347782132943],[-47.609192741231787,-19.432300535200394],[-47.609459957489648,-19.432211463114438],[-47.609684574054228,-19.432170412500913],[-47.610078040312182,-19.432083664034593],[-47.610195770373615,-19.432050358819847],[-47.610398699821609,-19.432001562807542],[-47.610506360864633,-19.43196283581365],[-47.610616345527291,-19.431936501457802],[-47.610634934484359,-19.431953541335115],[-47.610631061784972,-19.43197987569096],[-47.610593109330956,-19.432058104218626],[-47.610417288778685,-19.432340811274042],[-47.610267802582257,-19.432577045936785],[-47.610136905342898,-19.43278617170381],[-47.610063324054508,-19.432903901765251],[-47.609971153809042,-19.432919779832748],[-47.609871625434742,-19.432946888728473],[-47.60972988463709,-19.432989488421754],[-47.609557936784213,-19.433045255292964],[-47.609407288777973,-19.433098311274595],[-47.609262449820818,-19.433150979986291],[-47.609140847059997,-19.433199388728656],[-47.608956506569065,-19.433267935507846],[-47.608807020372637,-19.433322927839175],[-47.608676510403214,-19.433373660201177],[-47.608573496599462,-19.433422456213481],[-47.608486748133139,-19.433465443176704],[-47.608365919912195,-19.433535926305584],[-47.608271813317032,-19.433585496857766],[-47.608189324820046,-19.433631969250438],[-47.608099478194212,-19.433688123391583],[-47.608011180648134,-19.433748150232116],[-47.60795463923705,-19.433788426305767],[-47.607898485095909,-19.433833736888619],[-47.607807863930198,-19.433907705446956],[-47.60768974659883,-19.434002586581997],[-47.607610356261347,-19.43406571158204],[-47.607520122365585,-19.43413968014038],[-47.607395034175312,-19.434245404833707],[-47.607270333254974,-19.434353840416609],[-47.607182035708895,-19.434434779833843],[-47.607078634635201,-19.434526175539435],[-47.607006215156623,-19.434589300539479],[-47.606886936015435,-19.434700059742013],[-47.606801736628867,-19.43477828826968],[-47.60670337006438,-19.434870845785081],[-47.606625141536718,-19.434951010662441],[-47.606529098591864,-19.435050151766806],[-47.606457066383221,-19.435128767564411],[-47.606407495831043,-19.435182985355858],[-47.606347856260442,-19.435253468484746],[-47.606287054880028,-19.435312720785404],[-47.606225478959743,-19.435388625693431],[-47.606168550278724,-19.435451363423539],[-47.606104263468865,-19.435528430141382],[-47.606060039384751,-19.435550734462065],[-47.606044750971023,-19.435548510692794],[-47.606042687888916,-19.435549450831477],[-47.605945289158925,-19.435520781560101],[-47.605423346098732,-19.435359580448022],[-47.605289051788596,-19.435316799712105]],[[-47.604619931670193,-19.435108149069677],[-47.604618919873282,-19.435102520949354],[-47.604620046931387,-19.435100214411836],[-47.604638834019823,-19.435078422472337],[-47.604718224357306,-19.434982766797418],[-47.604832081719351,-19.434850707748247],[-47.604956395369747,-19.434710516030357],[-47.605075287241,-19.434581555140692],[-47.605207346290179,-19.434434005293962],[-47.605364965155331,-19.434252375692605],[-47.605474175278104,-19.434128449312148],[-47.605564021903938,-19.434027759128025],[-47.6056809774255,-19.433909254526711],[-47.605802580186328,-19.433779131827233],[-47.605933477425687,-19.43364513642836],[-47.606085287241747,-19.43349642477181],[-47.606230900738787,-19.433349262195019],[-47.606342434481192,-19.433245473851386],[-47.606385808714357,-19.433172667102866],[-47.60646403724202,-19.433061907900335],[-47.606550011168459,-19.432933334280609],[-47.606608101659297,-19.432862851151722],[-47.60676765687414,-19.43270716863627],[-47.606958193684086,-19.432532122623876],[-47.607147955954169,-19.432362498390621],[-47.607302089389862,-19.432254062807722],[-47.607474811782623,-19.432149499924211],[-47.607632043377826,-19.432080565875083],[-47.607790049512907,-19.432021700844366],[-47.607968193684819,-19.431985297470106],[-47.608116905341369,-19.431970581212429],[-47.608267166077674,-19.431958188574384],[-47.608529735096262,-19.431897774463913],[-47.608624228961361,-19.431830389494539],[-47.608804696752905,-19.431718081212249],[-47.608950310249945,-19.431631332745926],[-47.609126130802224,-19.431568595015818],[-47.609315118532422,-19.431536838880827],[-47.609568393072472,-19.431483395629254],[-47.609600149207466,-19.431486493788768],[-47.60987511086411,-19.431429177837806],[-47.610103600128085,-19.431357920169045],[-47.610310402275474,-19.431296731518692],[-47.610401023441185,-19.43126652446346],[-47.610535793379938,-19.43120456127323],[-47.610659719760392,-19.431149568941905],[-47.610803009637792,-19.431082958512409],[-47.61090524890168,-19.431031064340587],[-47.61104853877908,-19.43097994470865],[-47.611205770374283,-19.430934246855859],[-47.611224359331352,-19.430938894095124],[-47.611242948288421,-19.430947414033781],[-47.611241399208666,-19.430976072009262],[-47.611225908411114,-19.431031064340591],[-47.611077971294442,-19.431258779064681],[-47.610869620067298,-19.43159183121216],[-47.610696897674529,-19.431865243789044],[-47.610593496600849,-19.431898936273736],[-47.610464922981123,-19.431943859586653],[-47.610203128502405,-19.43201627906523],[-47.610038538778362,-19.432056555138882],[-47.609830187551211,-19.432101478451795],[-47.60967527957564,-19.432138269095994],[-47.609487453655262,-19.432177383359825],[-47.609355007336156,-19.432210688574575],[-47.609254704421964,-19.432243606519382],[-47.60915672512742,-19.432285431672785],[-47.60904131868562,-19.432343134893685],[-47.608948761170211,-19.432382636427459],[-47.608853105495299,-19.432424461580858],[-47.608772166078062,-19.43245699225573],[-47.608666054114799,-19.432491459280296],[-47.608562653041105,-19.432516244556385],[-47.608437177580889,-19.432541417102417],[-47.608335712856892,-19.432566202378506],[-47.608201717458023,-19.432609576611664],[-47.608094443684941,-19.432653725384704],[-47.607998013470144,-19.432698261427682],[-47.60790197052529,-19.432737762961452],[-47.607823741997628,-19.432769906366385],[-47.607754033408618,-19.432799726151682],[-47.607695942917779,-19.432831095016734],[-47.607633979727552,-19.432867885660933],[-47.60753522589313,-19.43294030513951],[-47.607439957488147,-19.433010788268394],[-47.607357468991154,-19.43307972231753],[-47.607285049512576,-19.433138587348246],[-47.607228895371435,-19.433192417869755],[-47.607155314083037,-19.43326793550785],[-47.607088703653545,-19.43332563872875],[-47.607020156874356,-19.433392636428184],[-47.606914819450964,-19.433493713882246],[-47.606816065616542,-19.433585884127709],[-47.606725057180888,-19.433673794403845],[-47.606638308714565,-19.433751248391633],[-47.606536843990575,-19.433855424005205],[-47.606432281107061,-19.433959212348839],[-47.606333914542567,-19.434054480753815],[-47.606221218990349,-19.434169112655738],[-47.606115881566957,-19.434281033668089],[-47.606010156873637,-19.434386758361416],[-47.605912952118956,-19.434488610355352],[-47.605802192916428,-19.434612149465874],[-47.605678653805903,-19.434756988423032],[-47.605556276505204,-19.434897567410868],[-47.605443968222922,-19.43503504823919],[-47.605356057946786,-19.435134189343554],[-47.605298354725882,-19.435191892564454],[-47.605240651504978,-19.435249983055293],[-47.605202422275227,-19.435287010828301],[-47.605193940084646,-19.435286500969852],[-47.605108786090838,-19.435259374351325],[-47.604629539541421,-19.435118214458587],[-47.604619931670193,-19.435108149069677]],[[-47.604436805852586,-19.43505399568657],[-47.60439596130832,-19.435029662766581],[-47.604380276875794,-19.435016592406143],[-47.604368077872721,-19.434983916505047],[-47.60435326479756,-19.43490505866373],[-47.604341065794479,-19.434803981209672],[-47.604337144686347,-19.43473557965671],[-47.604339323079742,-19.434665871067704],[-47.60434193715183,-19.434617075055399],[-47.604356750226991,-19.434559565469467],[-47.60436328540721,-19.434519918709473],[-47.604388990449408,-19.43448245034288],[-47.604440400533797,-19.434430168901123],[-47.604499652834448,-19.434384858318271],[-47.604551498597523,-19.434362638705526],[-47.604603780039277,-19.434312535657178],[-47.604683073559272,-19.434225835599602],[-47.604724463033996,-19.434190109947735],[-47.604730998214215,-19.434152641581143],[-47.60474276153861,-19.43409687470994],[-47.604760624364545,-19.434002332436105],[-47.604778051511794,-19.433924781630836],[-47.604808549019488,-19.433857687113917],[-47.60483817516981,-19.433806712708208],[-47.604876950572447,-19.433739182512607],[-47.604955372735077,-19.433640719130636],[-47.605002426032655,-19.43358059547262],[-47.605027259717488,-19.433540948712622],[-47.605093482877045,-19.433462090871309],[-47.605154913571106,-19.433403709928015],[-47.605205452298136,-19.433345764663404],[-47.605321778506038,-19.433236409314404],[-47.605460324326693,-19.433103091637932],[-47.605516962555257,-19.433062573520573],[-47.605575779177229,-19.433004192577279],[-47.605711710925803,-19.432882202546523],[-47.605769220511732,-19.432833406534218],[-47.605880318575458,-19.432730150686748],[-47.605951334200505,-19.432663927527194],[-47.606056332762691,-19.43256415710918],[-47.60611384234862,-19.432520153562368],[-47.606198799691477,-19.432440860042377],[-47.60631294750597,-19.432343268017767],[-47.606382220416293,-19.432274866464809],[-47.606410103851893,-19.432256132281513],[-47.606435373215412,-19.432243933278436],[-47.606459771221566,-19.432223456380417],[-47.606472405903318,-19.432195137266131],[-47.606510309948597,-19.432160718650309],[-47.606559105960898,-19.432114972388774],[-47.606668896988587,-19.43201955875757],[-47.606695037709464,-19.432002567289],[-47.606730763361327,-19.431989496928562],[-47.606757775439569,-19.431960306456915],[-47.606783480481766,-19.431925452162414],[-47.60687410164747,-19.431833523960666],[-47.606947731344604,-19.431778628446821],[-47.607030074615373,-19.431727654041111],[-47.607210881268102,-19.431613506226618],[-47.607396480386328,-19.431496308661352],[-47.607539818672478,-19.431413529711907],[-47.607700148427192,-19.431315937687298],[-47.60787572693576,-19.431202225551484],[-47.607999024002559,-19.431133388319839],[-47.608093130597723,-19.431076750091268],[-47.608121885390688,-19.431062808373468],[-47.608157175363871,-19.431060194301381],[-47.608189851264967,-19.431045816904899],[-47.608215556307165,-19.431028825436329],[-47.608235597526502,-19.431017062111934],[-47.608252588995072,-19.431008784216989],[-47.608270887499685,-19.430990050033692],[-47.608274372929138,-19.430967394742265],[-47.608279165394634,-19.430951710309738],[-47.608320119190672,-19.430926440946227],[-47.608419453930011,-19.430876337897882],[-47.608495697699233,-19.430834512744479],[-47.608556257035936,-19.430811421774369],[-47.608623787231529,-19.430778745873273],[-47.608768868232403,-19.430689867422288],[-47.608839883857449,-19.430644992518115],[-47.608921791449532,-19.430600117613942],[-47.609010234221834,-19.430565698998119],[-47.609109568961173,-19.430524745202082],[-47.60918232730095,-19.43049773312384],[-47.609223716775666,-19.43047115672428],[-47.609255521319405,-19.430453293898349],[-47.609285147469734,-19.430441530573955],[-47.609365312347087,-19.430420182318574],[-47.609444605867083,-19.430407547636815],[-47.609512136062683,-19.430390120489562],[-47.609634561772125,-19.430355266195061],[-47.609706013075858,-19.430330868188911],[-47.609785742274532,-19.430312569684297],[-47.609897276016945,-19.430287735999464],[-47.60998746150397,-19.430277279711113],[-47.610100737961105,-19.430238068629798],[-47.610237976745708,-19.430207571122107],[-47.610424447221298,-19.430162260539255],[-47.610581727225245,-19.430120871064535],[-47.610679319249861,-19.430109107740144],[-47.610744671052053,-19.430098215773111],[-47.610811765568968,-19.430077738875092],[-47.610884959587423,-19.430060311727839],[-47.611084500423452,-19.430028507184105],[-47.611240473391355,-19.430008901643447],[-47.611310181980365,-19.430003237820593],[-47.611446113728924,-19.429980582529168],[-47.611547191182986,-19.429969690562135],[-47.611595115837922,-19.429964898096642],[-47.611672666643194,-19.429952263414886],[-47.611737147088022,-19.42994747094939],[-47.611789428529775,-19.429953134772248],[-47.611832755758947,-19.429962846047751],[-47.611830824055673,-19.429968008358227],[-47.611772733564834,-19.430106650996365],[-47.611635640006455,-19.430352954677524],[-47.611477633871367,-19.430598483818805],[-47.611355256570668,-19.430797540567411],[-47.611283224362012,-19.430891259892633],[-47.611165494300579,-19.430912947009212],[-47.610948623134774,-19.430985753757728],[-47.610753439085556,-19.431066305905023],[-47.6105876875517,-19.431151505291588],[-47.610483899208063,-19.431193330444991],[-47.610318147674207,-19.43125994087449],[-47.610129159944009,-19.431320354984965],[-47.609998649974571,-19.431359081978862],[-47.60983560933029,-19.431402068942081],[-47.609676054115454,-19.431442345015732],[-47.609533151507975,-19.43147177753109],[-47.609316280342185,-19.431509729985105],[-47.60913813617028,-19.43154458427961],[-47.609049838624202,-19.431566271396189],[-47.608984390004522,-19.431591056672282],[-47.608877890771325,-19.431645661733672],[-47.608740797212938,-19.431729312040481],[-47.60857543294901,-19.431830002224601],[-47.608498366231167,-19.431871827378004],[-47.608452281108434,-19.431888867255317],[-47.608381023439669,-19.43190939256208],[-47.608275686016285,-19.431923721549822],[-47.608155632335212,-19.431934565108115],[-47.607989493531413,-19.431956639494633],[-47.607855110862609,-19.431976390261514],[-47.607759842457632,-19.432002337347424],[-47.60765179414468,-19.432041451611255],[-47.607523607794889,-19.432097993022339],[-47.607408588623024,-19.432154534433419],[-47.607329585555483,-19.432200232286213],[-47.60724825886831,-19.432255224617538],[-47.607152215923463,-19.432327644096119],[-47.607061982027687,-19.432403161734211],[-47.60698840073929,-19.432472095783339],[-47.606874543377245,-19.432572785967462],[-47.606767269604163,-19.432663407133173],[-47.606658834021268,-19.43275867553815],[-47.606601518070306,-19.432824124157829],[-47.606529098591722,-19.432913970783659],[-47.606485337088621,-19.432982130292913],[-47.606430732027242,-19.433065780599723],[-47.606381548744992,-19.433133165569096],[-47.606280471290937,-19.433257479219492],[-47.606203791843029,-19.433336869556971],[-47.606098067149695,-19.43343872155091],[-47.606019064082155,-19.433521984587781],[-47.605935413775349,-19.433601762195199],[-47.605806065615752,-19.433732272164619],[-47.605697242762915,-19.433845354986786],[-47.605565570983678,-19.433978963115717],[-47.605423830186034,-19.43413309655141],[-47.605321978192094,-19.434262444711013],[-47.605236778805534,-19.434365458514769],[-47.605121372363733,-19.434497517563944],[-47.604976533406571,-19.434650489189824],[-47.604873906872754,-19.434751566643879],[-47.604779025737713,-19.434853031367876],[-47.604685693682434,-19.434965726920108],[-47.604640383099579,-19.435021881061253],[-47.604590448573006,-19.435089845355037],[-47.604588177378339,-19.435092691535697],[-47.604564187739228,-19.435104272740784],[-47.604490122363408,-19.435075517947819],[-47.604436805852586,-19.43505399568657]],[[-47.606205728192862,-19.435452137963413],[-47.606313389235886,-19.435328986122833],[-47.606431119297312,-19.435200025233172],[-47.606582929113372,-19.435034660969251],[-47.606773853193268,-19.434850707748261],[-47.606927599359025,-19.434701221551833],[-47.607099159941974,-19.434550186275647],[-47.607221924512615,-19.434447172471891],[-47.607336169144595,-19.434336800539295],[-47.607523220525081,-19.43418770161281],[-47.60768858478901,-19.434052544404125],[-47.607823354727756,-19.433941397931651],[-47.607976326353629,-19.433825991489847],[-47.608148274206513,-19.43370632507872],[-47.608270264237269,-19.433628483820996],[-47.608422848593207,-19.433539411735044],[-47.608571172979822,-19.433463119557082],[-47.608699746599541,-19.433402705446607],[-47.60875667528056,-19.433379081980334],[-47.608873630802115,-19.433338805906686],[-47.608981679115075,-19.433286911734868],[-47.609064554882011,-19.43325747921951],[-47.60916756868577,-19.433218752225617],[-47.609266322520199,-19.433183510661173],[-47.609434397673688,-19.43312580744027],[-47.609518822520378,-19.433094825845156],[-47.609689608563443,-19.433043706213219],[-47.609760478962272,-19.43302511725615],[-47.609839482029813,-19.43300381740951],[-47.609914225128023,-19.432986390262258],[-47.609981997367335,-19.432972448544454],[-47.610007557183309,-19.432967801305189],[-47.610015689852027,-19.432979806673295],[-47.60998896822624,-19.433026279065967],[-47.609876659943943,-19.433200937808426],[-47.609770160710738,-19.433377145630637],[-47.609666372367109,-19.433542122624619],[-47.609566456722867,-19.43369470698056],[-47.609456472060202,-19.433882532900938],[-47.609291882336159,-19.43414626372935],[-47.609000268072172,-19.434615441260359],[-47.608540191384719,-19.435364808592183],[-47.608168993148254,-19.435959074313473],[-47.608047003117491,-19.436149030218516],[-47.608001692534636,-19.436140316644892],[-47.607582569643242,-19.436015712542048],[-47.607033614504807,-19.435846669213714],[-47.606608392111866,-19.435715965609322],[-47.606140302441446,-19.43557818363012],[-47.606136487140546,-19.435574469620395],[-47.606134857794039,-19.43556870621503],[-47.606133695984227,-19.435553215417475],[-47.606135245063982,-19.435532690110712],[-47.606205728192862,-19.435452137963413]],[[-47.604288130834725,-19.435369492137987],[-47.604201866455831,-19.435444428871165],[-47.604119958863748,-19.43552546510589],[-47.604039793986395,-19.435607372697969],[-47.603957015036947,-19.435704093365214],[-47.603922160742442,-19.435758117521694],[-47.603894277306843,-19.435805170819272],[-47.603861165727061,-19.43586616583465],[-47.603793199852774,-19.435993384009588],[-47.603733947552115,-19.436113631325622],[-47.603670338464653,-19.436227779140122],[-47.603577974584219,-19.43636588928209],[-47.603569261010598,-19.436377870445824],[-47.603559458240269,-19.436384405626043],[-47.603537674306203,-19.436387455376813],[-47.603523514749064,-19.436387455376813],[-47.603511533585326,-19.436380702357255],[-47.603510662227961,-19.436359354101871],[-47.603516761729495,-19.436300101801216],[-47.603522861231035,-19.436237364071111],[-47.603538545663561,-19.436198152989792],[-47.603568171813883,-19.436162427337926],[-47.603602154751023,-19.436104046394636],[-47.603642237189703,-19.436021267445192],[-47.603691904559369,-19.435917575919046],[-47.6037424432864,-19.435814755750261],[-47.603807795088592,-19.435709321509389],[-47.603885345893865,-19.43560388726852],[-47.60396289669913,-19.435506295243908],[-47.604027377143964,-19.43543571529754],[-47.604091857588791,-19.435374720282159],[-47.604175507895597,-19.435306754407879],[-47.604275713992294,-19.435225718173157],[-47.60436720651537,-19.435153395512067],[-47.604414695491627,-19.435112441716026],[-47.604420451867988,-19.435097317119318],[-47.604429127348027,-19.435100787311335],[-47.604516263084285,-19.435127799389576],[-47.604529322008098,-19.435150289758369],[-47.604526011394704,-19.435162980443057],[-47.604499870673827,-19.43519522066547],[-47.604462402307242,-19.435226589530522],[-47.604415349009656,-19.435268414683929],[-47.604348254492741,-19.435320696125682],[-47.604288130834725,-19.435369492137987]],[[-47.599599935754384,-19.441916576873961],[-47.599462584016052,-19.4419093478351],[-47.599302512441291,-19.441919675033471],[-47.599113524711093,-19.441943427589727],[-47.598912144342847,-19.441978540064191],[-47.598733483811031,-19.442000227180767],[-47.598601295671877,-19.442032241495721],[-47.598470362817444,-19.44208321535508],[-47.598452180475761,-19.442079496239735],[-47.598439976227333,-19.442068343660008],[-47.597613800357621,-19.441304130980519],[-47.597131864433628,-19.440835964654347],[-47.597091932599923,-19.440768493624986],[-47.597108456117319,-19.440713415233674],[-47.597615177317408,-19.440431138478189],[-47.598058558367491,-19.440333374333601],[-47.598397290474068,-19.440268657223811],[-47.598781462253491,-19.440187416596626],[-47.599231728102481,-19.440113060768347],[-47.599586983726461,-19.440042835819419],[-47.599841721286289,-19.439994642227024],[-47.599929846712392,-19.440000150066158],[-47.599997317741753,-19.44004558973899],[-47.600051019173286,-19.440140599964007],[-47.600235531784193,-19.440528902622773],[-47.60050403894185,-19.441090702214179],[-47.600699567231011,-19.441531329344695],[-47.600751891702764,-19.441586407736008],[-47.600864802404956,-19.441624962609929],[-47.601072723332166,-19.441682794920805],[-47.601337099610475,-19.441753019869733],[-47.601637276843135,-19.441837014416485],[-47.601893531882624,-19.441929211996833],[-47.601893531882624,-19.441935306014543],[-47.601895903832521,-19.441935488957487],[-47.601880181154812,-19.441948591188915],[-47.601506336573763,-19.441952722068262],[-47.600605804875769,-19.441932067671519],[-47.599894260907973,-19.441937231270703],[-47.599599935754384,-19.441916576873961]],[[-47.598704567655595,-19.442044634133762],[-47.598787701602483,-19.442026045176696],[-47.598891489946112,-19.44201003801922],[-47.599096484833787,-19.441977507344351],[-47.599308450580367,-19.441951947528381],[-47.599408366224608,-19.441946267569278],[-47.599576957738023,-19.441948333008952],[-47.599794861623664,-19.441960467467041],[-47.599927824302689,-19.441961758366833],[-47.600069048740423,-19.441968729225735],[-47.600248741992083,-19.441967438325939],[-47.600439536982002,-19.441964598346388],[-47.600623619292975,-19.441967954685857],[-47.600824999661221,-19.441968471045772],[-47.601040579927222,-19.441972085565205],[-47.601248414794448,-19.441975700084633],[-47.601446180643258,-19.441981638223698],[-47.601669764488001,-19.441984994563168],[-47.601799370827557,-19.441987060002845],[-47.601891282893064,-19.441991707242114],[-47.601940595265283,-19.441982154583616],[-47.602003074815428,-19.441980605503854],[-47.602035089130382,-19.441978023704262],[-47.602095503240854,-19.441984478203246],[-47.602217622361593,-19.442025528816774],[-47.602327607024243,-19.442069161229895],[-47.602493616738066,-19.442140677078619],[-47.602668146390542,-19.44222277830567],[-47.602872108558387,-19.442317013990809],[-47.6030603217487,-19.442409958776153],[-47.60327202931532,-19.442506776260885],[-47.603377366738705,-19.442558928612662],[-47.603591268834933,-19.442660393336674],[-47.603816272669448,-19.44277386342878],[-47.603895663006931,-19.442812203152734],[-47.603980087853614,-19.4428606118951],[-47.603995861336841,-19.442906008749272],[-47.603708224356552,-19.443462859680107],[-47.603063807178174,-19.444757201875998],[-47.602636949645486,-19.445605409102239],[-47.602537808541122,-19.445721073723998],[-47.602503384546544,-19.445732433642203],[-47.602473779911215,-19.445723139163665],[-47.602421111199519,-19.44567632253105],[-47.601473418628977,-19.444823640185515],[-47.600141898518956,-19.443613292536384],[-47.59912707915899,-19.442696237320995],[-47.598515359953716,-19.442137231393936],[-47.598514408030582,-19.442127331393326],[-47.598517145330931,-19.442121856792632],[-47.598558437798637,-19.442088266546882],[-47.598602070211754,-19.442064772170589],[-47.598704567655595,-19.442044634133762]]]]}}
]
}
