{
"type": "FeatureCollection",
"name": "pasto",
"crs": { "type": "name", "properties": { "name": "urn:ogc:def:crs:OGC:1.3:CRS84" } },
"features": [
{"type":"Feature","properties":{"id":5,"Area":0.42,"Porcent":1.48},"geometry":{"type":"MultiPolygon","coordinates":[[[[-47.604209475427574,-19.441081418376729],[-47.604261814736851,-19.440997000135958],[-47.604304994663977,-19.440913518943518],[-47.604341457713552,-19.440856905261288],[-47.60437120388557,-19.440781100500335],[-47.604395192733975,-19.440699538415764],[-47.604407666935145,-19.44062661231662],[-47.604420141136309,-19.440569039080454],[-47.60444508953865,-19.440497072535244],[-47.604467029399402,-19.440459870162666],[-47.603969446974226,-19.440298031656333],[-47.603707393914384,-19.440930793922774],[-47.604209475427574,-19.441081418376729]]]]}},
{"type":"Feature","properties":{"id":3,"Area":1.64,"Porcent":5.77},"geometry":{"type":"MultiPolygon","coordinates":[[[[-47.603410729561787,-19.442527890165405],[-47.603485385672265,-19.442438759911049],[-47.603549675785985,-19.442353359610735],[-47.603618763669388,-19.442251646893506],[-47.603692649322461,-19.442122107112127],[-47.603756939436181,-19.442006960639794],[-47.603828905981388,-19.441871663534801],[-47.603902791634468,-19.441715256243214],[-47.603960364870638,-19.441599150216945],[-47.604036169631584,-19.441455217126524],[-47.60409854063743,-19.441320879575468],[-47.604136699528027,-19.441230252210293],[-47.603907383973571,-19.441147925718251],[-47.603786555752613,-19.441127013141546],[-47.603471980225613,-19.441048800579075],[-47.603403220557162,-19.441121967918573],[-47.603380229204291,-19.441154539001811],[-47.60320971000381,-19.44127811752351],[-47.602999913908832,-19.441428519290231],[-47.602776706191349,-19.441586584841239],[-47.602531465094025,-19.441769557691199],[-47.60232166899906,-19.441921875403988],[-47.602234427381255,-19.441990300202267],[-47.602313794396437,-19.442016879788149],[-47.603410729561787,-19.442527890165405]]]]}},
{"type":"Feature","properties":{"id":2,"Area":1.11,"Porcent":3.9},"geometry":{"type":"MultiPolygon","coordinates":[[[[-47.604136699528027,-19.441230252210293],[-47.60409854063743,-19.441320879575468],[-47.604036169631584,-19.441455217126524],[-47.603960364870638,-19.441599150216945],[-47.603902791634468,-19.441715256243214],[-47.603828905981388,-19.441871663534801],[-47.603756939436181,-19.442006960639794],[-47.603692649322461,-19.442122107112127],[-47.603618763669388,-19.442251646893506],[-47.603549675785985,-19.442353359610735],[-47.603485385672265,-19.442438759911049],[-47.603410729561787,-19.442527890165405],[-47.603878881309619,-19.442745979993163],[-47.604039546612555,-19.442821436221699],[-47.60404144862401,-19.442817754021842],[-47.604727650803213,-19.441474112629049],[-47.604728202609181,-19.441465099798251],[-47.604722974465005,-19.44145348170008],[-47.604705547317749,-19.441438378172464],[-47.604696590063028,-19.441431258303325],[-47.604136699528027,-19.441230252210293]]]]}},
{"type":"Feature","properties":{"id":7,"Area":0.93,"Porcent":3.27},"geometry":{"type":"MultiPolygon","coordinates":[[[[-47.603969446974226,-19.440298031656333],[-47.60519949293252,-19.440698103665593],[-47.605289684168923,-19.440550492542666],[-47.605277774959298,-19.440527927724432],[-47.605242049307435,-19.440493944787292],[-47.605167983931615,-19.440456476420703],[-47.604398575380465,-19.440031254027765],[-47.604101442519827,-19.439860467984701],[-47.60377468350886,-19.439703623659437],[-47.603581243879773,-19.439616034305317],[-47.603451438533327,-19.439558555923131],[-47.603423337990918,-19.43954514430062],[-47.603421901031403,-19.439548976192768],[-47.603364901635743,-19.439717579447176],[-47.60331173413222,-19.43986414932175],[-47.603281078995053,-19.439967610409685],[-47.603256171696096,-19.440035626495273],[-47.603269343825332,-19.440048798624527],[-47.603636185570508,-19.440181379290266],[-47.603895744910233,-19.440273496468134],[-47.603969446974226,-19.440298031656333]]]]}},
{"type":"Feature","properties":{"id":4,"Area":0.54,"Porcent":1.9},"geometry":{"type":"MultiPolygon","coordinates":[[[[-47.604467029399402,-19.440459870162666],[-47.60444508953865,-19.440497072535244],[-47.604420141136309,-19.440569039080454],[-47.604407666935145,-19.44062661231662],[-47.604395192733975,-19.440699538415764],[-47.60437120388557,-19.440781100500335],[-47.604341457713552,-19.440856905261288],[-47.604304994663977,-19.440913518943518],[-47.604261814736851,-19.440997000135958],[-47.604209475427574,-19.441081418376729],[-47.604526047701022,-19.441176390058764],[-47.604819985584683,-19.44126352579503],[-47.604859976464752,-19.441253771921843],[-47.60519949293252,-19.440698103665593],[-47.604467029399402,-19.440459870162666]]]]}},
{"type":"Feature","properties":{"id":1,"Area":3.26,"Porcent":11.47},"geometry":{"type":"MultiPolygon","coordinates":[[[[-47.604811663792177,-19.441474905361602],[-47.604823395809198,-19.441451821014013],[-47.60587073443584,-19.442142888246646],[-47.605857980448434,-19.442178007922116],[-47.606652491107546,-19.439990224947781],[-47.606561813260591,-19.438778308326473],[-47.606472574744537,-19.438726492413924],[-47.6047741642776,-19.441449706484608],[-47.604811663792177,-19.441474905361602]]]]}},
{"type":"Feature","properties":{"id":6,"Area":0.17,"Porcent":0.6},"geometry":{"type":"MultiPolygon","coordinates":[[[[-47.603563217177594,-19.440693110606468],[-47.603526876147143,-19.440877901317894],[-47.603527283909763,-19.440877002715041],[-47.603709958990358,-19.440933316536661],[-47.603710636387831,-19.440931766664811],[-47.603707393914384,-19.440930793922774],[-47.603969446974226,-19.440298031656333],[-47.603895744910233,-19.440273496468134],[-47.603759595324917,-19.440225177206802],[-47.603564639013854,-19.440693753971292],[-47.603563217177594,-19.440693110606468]]]]}},
{"type":"Feature","properties":{"id":9,"Area":1.82,"Porcent":6.4},"geometry":{"type":"MultiPolygon","coordinates":[[[[-47.600113069154872,-19.440188068215978],[-47.600147406358062,-19.440259706985223],[-47.600263070979821,-19.44049688830782],[-47.600365310243703,-19.44070721891465],[-47.600444141191275,-19.440878994647569],[-47.60058114868967,-19.441160582923164],[-47.600665143236419,-19.441345784013958],[-47.600744318423935,-19.441505167108826],[-47.600774267299215,-19.441545098942527],[-47.600811445213353,-19.441567130299052],[-47.60096876286854,-19.44160706213275],[-47.601217992589241,-19.441683483400698],[-47.601474795588743,-19.441756806509133],[-47.601794938738259,-19.441854226413774],[-47.602093394771188,-19.441942696079824],[-47.602085071789006,-19.441942184121341],[-47.602085770763196,-19.441942655169164],[-47.602093308711204,-19.441943040319792],[-47.602234427381255,-19.441990300202267],[-47.60232166899906,-19.441921875403988],[-47.602531465094025,-19.441769557691199],[-47.602776706191349,-19.441586584841239],[-47.602999913908832,-19.441428519290231],[-47.603068912880325,-19.441379054274137],[-47.602905822805781,-19.441163639467348],[-47.60275830172187,-19.441095979421341],[-47.602633169898077,-19.441387326449657],[-47.602261489234415,-19.441379174233635],[-47.601999991020087,-19.44146451721738],[-47.601659318628229,-19.441593046062309],[-47.601472680933306,-19.441539466221279],[-47.601512993467367,-19.441386488478798],[-47.601377333343592,-19.441263269587605],[-47.601240048209768,-19.44112563769588],[-47.601194056637929,-19.441079529490306],[-47.600989074719216,-19.440981925696896],[-47.600872622534588,-19.440958508943055],[-47.600940885248605,-19.440857334379],[-47.600953215059704,-19.440839059695808],[-47.600908346236999,-19.440812321708709],[-47.600882301899766,-19.440676462112794],[-47.600831698960526,-19.440565806978132],[-47.600693844546392,-19.440449248709285],[-47.600762166641779,-19.440354670653623],[-47.600734429042319,-19.440284687161714],[-47.600741146251941,-19.440228824520194],[-47.60075087981059,-19.440183045716783],[-47.600757009456707,-19.440154225387602],[-47.600797510747299,-19.440108985075724],[-47.600773224624326,-19.440095500386704],[-47.600765052554721,-19.440078527489568],[-47.600733843909126,-19.440013706532959],[-47.600692728739261,-19.439988587882752],[-47.600681128781247,-19.439981501079114],[-47.600113069154872,-19.440188068215978]]]]}},
{"type":"Feature","properties":{"id":8,"Area":0.46,"Porcent":1.62},"geometry":{"type":"MultiPolygon","coordinates":[[[[-47.60275830172187,-19.441095979421341],[-47.602905822805781,-19.441163639467348],[-47.603068912880325,-19.441379054274137],[-47.60320971000381,-19.44127811752351],[-47.603380229204291,-19.441154539001811],[-47.603403220557162,-19.441121967918573],[-47.603471980225613,-19.441048800579075],[-47.603450999371844,-19.441046843761733],[-47.603450639539119,-19.441022794941201],[-47.603466352234818,-19.441011280293971],[-47.603526876147143,-19.440877901317894],[-47.603563217177594,-19.440693110606468],[-47.603494068333504,-19.440661821536743],[-47.603474285390121,-19.440653667756028],[-47.603475771626591,-19.440650671116639],[-47.603447307286089,-19.440640795733191],[-47.603446550836921,-19.440642258201585],[-47.60338262413692,-19.44062126734487],[-47.603374960352632,-19.440645216670781],[-47.603282356292446,-19.440618074101415],[-47.603289700752391,-19.440591889505086],[-47.603123652092741,-19.440543352204575],[-47.603089009580827,-19.440535088853107],[-47.603089469862503,-19.440532747420225],[-47.603058681902354,-19.440525195656413],[-47.603057966082666,-19.440527683981987],[-47.603019233031773,-19.440518444905624],[-47.602940679242778,-19.440802324248747],[-47.602893419239656,-19.440956238583265],[-47.602848713831271,-19.440972843449231],[-47.602841939623509,-19.440971835382598],[-47.602840842561697,-19.440967264291725],[-47.602814120935911,-19.440963778862276],[-47.602813063579362,-19.440967538352218],[-47.602795067341233,-19.440964860340593],[-47.60276058031193,-19.441090674132713],[-47.60275830172187,-19.441095979421341]]]]}},
{"type":"Feature","properties":{"id":13,"Area":1.71,"Porcent":6.01},"geometry":{"type":"MultiPolygon","coordinates":[[[[-47.601106628436497,-19.438950369763123],[-47.600948179612367,-19.439150906556172],[-47.600976868000217,-19.439168207454955],[-47.60098433273253,-19.439204289752475],[-47.600986140698026,-19.439213031910278],[-47.600985388125373,-19.439215025682287],[-47.600979210475913,-19.439231393489063],[-47.600978181175151,-19.439234120850447],[-47.600956778497263,-19.439290821695717],[-47.600907402633702,-19.439356940140446],[-47.600876474152614,-19.439380889590272],[-47.600821097534556,-19.439423769697932],[-47.600825599270934,-19.439433405116976],[-47.600843496746677,-19.439482697622438],[-47.600868672291092,-19.439518311010435],[-47.600889776599765,-19.439561984227659],[-47.600908421489834,-19.439609494325893],[-47.600930227740321,-19.439650443966492],[-47.600898126952366,-19.439651665582915],[-47.600896648198777,-19.439671476088513],[-47.600887410370085,-19.4397952330539],[-47.601159944697855,-19.439804683983279],[-47.601180771002589,-19.439805406547855],[-47.601342510747507,-19.439844156580641],[-47.601580784180797,-19.43990031090766],[-47.601615979921746,-19.439908605679062],[-47.60161890557427,-19.439909295133535],[-47.601621056995079,-19.439909365404517],[-47.601769225499972,-19.439914174704928],[-47.601831965538807,-19.439916210780531],[-47.601977296731206,-19.439831921741046],[-47.60197733098174,-19.439831915015525],[-47.601977326786674,-19.439831904197945],[-47.602004840698513,-19.439820667163858],[-47.602100109558407,-19.439781756596723],[-47.601106628436497,-19.438950369763123]]],[[[-47.600736766928719,-19.439489069222915],[-47.600670842991377,-19.439489273264467],[-47.60060236627838,-19.439516010496977],[-47.600535526699389,-19.439525777705434],[-47.600524330788573,-19.439526441221805],[-47.600494563255054,-19.439485439530539],[-47.600491151548056,-19.43948107725457],[-47.600161018771516,-19.439699839937813],[-47.599326206847095,-19.439489697625806],[-47.598869213609063,-19.439556779202032],[-47.598955035224513,-19.439888686002121],[-47.598958074153785,-19.439903627404394],[-47.598958878762446,-19.439903550513463],[-47.598974119043426,-19.439962490826652],[-47.599012568983355,-19.44011119225182],[-47.599081983726073,-19.440098946930576],[-47.599396274796511,-19.440039049180019],[-47.599656175955531,-19.439990855587624],[-47.599834148007467,-19.439947137114512],[-47.599987708089088,-19.439908290174316],[-47.599988910324704,-19.439912115469454],[-47.599993875342278,-19.439910991920218],[-47.600051707653158,-19.440060047816708],[-47.600113069154872,-19.440188068215978],[-47.600681128781247,-19.439981501079114],[-47.600674903486343,-19.439977697837538],[-47.600640542241806,-19.439919505812153],[-47.600692630959195,-19.439849189311854],[-47.600648758356201,-19.43974218318656],[-47.600639258156832,-19.43971461912539],[-47.600626660187437,-19.439668395734177],[-47.600580809617107,-19.439657500318155],[-47.600574703023462,-19.439656049182958],[-47.600528303497633,-19.43968382068504],[-47.600475895251662,-19.439659354241456],[-47.600448834859414,-19.439626119221852],[-47.600490158385988,-19.43960888534825],[-47.600544299028009,-19.439610531718579],[-47.600557341407502,-19.439610453953122],[-47.600585204131548,-19.439610289176976],[-47.600597411801459,-19.439610217057599],[-47.600645691227214,-19.439620852793588],[-47.600688737465646,-19.439619139244957],[-47.600728337740456,-19.439614787789353],[-47.60074489716488,-19.439612968261279],[-47.600778500734656,-19.439664056433738],[-47.600833474531377,-19.439661417791005],[-47.600847079855136,-19.439633350802655],[-47.600838586820373,-19.439581363432698],[-47.600817476957907,-19.439539252470695],[-47.600798960934988,-19.439499527946552],[-47.600774120959109,-19.439460208888452],[-47.600736766928719,-19.439489069222915]]]]}},
{"type":"Feature","properties":{"id":15,"Area":1.85,"Porcent":6.51},"geometry":{"type":"MultiPolygon","coordinates":[[[[-47.598035451464838,-19.439283863242363],[-47.59620821323464,-19.440045440795579],[-47.596728740871782,-19.440530279591844],[-47.596983422712817,-19.440763780732347],[-47.596978333417802,-19.440747494988301],[-47.596981775817262,-19.440719611552698],[-47.596994512695254,-19.440693449316822],[-47.597008626533025,-19.440670385240459],[-47.597036165728682,-19.4406511078035],[-47.597130143233869,-19.440604979650779],[-47.597322917603464,-19.440504117346684],[-47.597454073022782,-19.440441465676564],[-47.597592113241014,-19.440381223686067],[-47.597806574727194,-19.440346799691493],[-47.598080933963935,-19.440296540659414],[-47.598396247167479,-19.440229298074222],[-47.59817426088258,-19.439628518171258],[-47.598183146846154,-19.439626169008474],[-47.598035451464838,-19.439283863242363]]]]}},
{"type":"Feature","properties":{"id":12,"Area":3.66,"Porcent":12.87},"geometry":{"type":"MultiPolygon","coordinates":[[[[-47.601108098506451,-19.438948509205837],[-47.601349906098356,-19.438446182720281],[-47.60208975374281,-19.438032777797794],[-47.602089634408166,-19.438032630950154],[-47.601734425127113,-19.437605089262057],[-47.601479945065726,-19.4372741717075],[-47.601172218379666,-19.436890474970578],[-47.601172217917878,-19.436890474938608],[-47.601187224445326,-19.436909186246456],[-47.601325772548428,-19.437081938328273],[-47.601294603975255,-19.437098017084008],[-47.601283029256642,-19.437103987550955],[-47.601204477625302,-19.437145087975331],[-47.601115192968514,-19.437164104222365],[-47.601047994298739,-19.437180125402403],[-47.600958394428439,-19.437165504986122],[-47.600867982426479,-19.437132532845379],[-47.600804533371054,-19.437104303029631],[-47.600730730390502,-19.437062898856436],[-47.600713557755384,-19.437053338564979],[-47.600648121004774,-19.437016908187697],[-47.600568354254008,-19.437008038617844],[-47.600472129264489,-19.436993880460012],[-47.600366470309716,-19.43698348394042],[-47.600259889074053,-19.436974047823373],[-47.600155217469599,-19.436976693445921],[-47.600042588584408,-19.437020889778179],[-47.599895319371555,-19.43702815792453],[-47.599743915710079,-19.437039998392073],[-47.599610103124476,-19.437121684419502],[-47.599509074077311,-19.437230412083945],[-47.59947128419207,-19.437337528993496],[-47.599462486335248,-19.437362468535365],[-47.599447737529701,-19.437487169753918],[-47.59948387751912,-19.437584136578529],[-47.599538883222088,-19.437658905518539],[-47.599541340843089,-19.437662245694224],[-47.599597555584801,-19.43772931187732],[-47.599603045310189,-19.437732139032697],[-47.599614392786457,-19.437673824306692],[-47.599734699493659,-19.437713678306356],[-47.599817242080441,-19.437749548650459],[-47.599846640126067,-19.437758722472573],[-47.59989243854384,-19.437773013246648],[-47.599969688337829,-19.437807958867946],[-47.600035146148265,-19.437841514932256],[-47.600065723580812,-19.437918806489979],[-47.600104038022728,-19.437981588841868],[-47.600061865932311,-19.4380532077754],[-47.600054945006548,-19.438078192670588],[-47.600065352530052,-19.438139244036972],[-47.600069099264687,-19.438166561041985],[-47.600077320350906,-19.438226477080747],[-47.60007228894586,-19.438303150386016],[-47.600071794943979,-19.438310680330066],[-47.600071362867631,-19.438317257628313],[-47.600066523536846,-19.438343010027079],[-47.600057725793505,-19.438389821965657],[-47.600070714436001,-19.43844302089099],[-47.60008414337247,-19.438489201736179],[-47.600181580412297,-19.438553153710103],[-47.600204279465075,-19.438573090595849],[-47.600308995800582,-19.438558849730299],[-47.600323779347335,-19.438571096399873],[-47.60036010544291,-19.438601188921044],[-47.600380853907957,-19.438694715420233],[-47.600438599156398,-19.43875892120306],[-47.600455971305173,-19.438815402828926],[-47.600451337830698,-19.438862733884797],[-47.600519126545166,-19.438936445935894],[-47.60070841824983,-19.439034268351161],[-47.600870007423666,-19.439103762644386],[-47.600919886393065,-19.439133843968829],[-47.600948179612367,-19.439150906556172],[-47.601108098506451,-19.438948509205837]]]]}},
{"type":"Feature","properties":{"id":11,"Area":2.26,"Porcent":7.95},"geometry":{"type":"MultiPolygon","coordinates":[[[[-47.603154158999146,-19.439509481800634],[-47.602319829918223,-19.438315898801257],[-47.60208975374281,-19.438032777797794],[-47.601349906098356,-19.438446182720281],[-47.601108098506451,-19.438948509205837],[-47.601106628436497,-19.438950369763123],[-47.602100109558407,-19.439781756596723],[-47.602205102042177,-19.439738874619412],[-47.602222947574688,-19.439736466711953],[-47.602355209474887,-19.439718621002051],[-47.60261099900093,-19.439694288807615],[-47.602649670066782,-19.439668324449997],[-47.602672391330557,-19.439634713976925],[-47.60273297240154,-19.439607774163829],[-47.602822443952121,-19.439607156450293],[-47.602912559764093,-19.439564751499169],[-47.603026006936247,-19.439538634876552],[-47.603154158999146,-19.439509481800634]]]]}},
{"type":"Feature","properties":{"id":14,"Area":3.11,"Porcent":10.94},"geometry":{"type":"MultiPolygon","coordinates":[[[[-47.598183146846154,-19.439626169008474],[-47.598842110422126,-19.439451960247013],[-47.598869213609063,-19.439556779202032],[-47.599326206847095,-19.439489697625806],[-47.600161018771516,-19.439699839937813],[-47.600491151548056,-19.43948107725457],[-47.600423471553874,-19.439394540276833],[-47.60042429572551,-19.439383060410112],[-47.60043338502485,-19.439256518767948],[-47.600436452753776,-19.439160564867571],[-47.600437427090199,-19.439130072976099],[-47.6003660171951,-19.439019070325042],[-47.600328601084051,-19.439000149058018],[-47.600292173389093,-19.438981728317934],[-47.600302718724834,-19.438975781687766],[-47.600250577985271,-19.438904997548182],[-47.600177165097996,-19.438861120645186],[-47.600103243799886,-19.438801281509672],[-47.60000245169249,-19.438722418570563],[-47.599946336674662,-19.438669952591162],[-47.599869653074435,-19.438610045485724],[-47.599770262752465,-19.43859502852353],[-47.599706589125113,-19.438548963792126],[-47.599677999186312,-19.438467427592478],[-47.599613694672023,-19.438402605790319],[-47.599577292251006,-19.438320139492696],[-47.599473171894424,-19.438307430480197],[-47.599471238688594,-19.438307194514326],[-47.599338818647944,-19.438310113764551],[-47.599197325213233,-19.438321453369095],[-47.599108582748663,-19.438335844822117],[-47.599048564423313,-19.438327906149574],[-47.599027659121639,-19.438325140969464],[-47.599024294779021,-19.438324696146918],[-47.598945649582276,-19.438292330120341],[-47.598843064047998,-19.438269302772529],[-47.598823047097817,-19.438267688800863],[-47.598729876087198,-19.438260174513726],[-47.598635367516621,-19.438286965238504],[-47.598543994216683,-19.438313685710483],[-47.598441316777738,-19.438339471862001],[-47.598351489292092,-19.438366613466599],[-47.598254217759873,-19.438420161472738],[-47.598153743739765,-19.438448635732534],[-47.598057109070773,-19.438513078213173],[-47.597993881941825,-19.438566972757034],[-47.597958720497779,-19.438634719055578],[-47.597902442868673,-19.438690163798633],[-47.597799501694283,-19.438710287990812],[-47.597788215375637,-19.438710857247386],[-47.598183146846154,-19.439626169008474]]]]}},
{"type":"Feature","properties":{"id":16,"Area":3.29,"Porcent":11.57},"geometry":{"type":"MultiPolygon","coordinates":[[[[-47.598035451464838,-19.439283863242363],[-47.597788215375637,-19.438710857247386],[-47.597710186443649,-19.438714792851528],[-47.59765876162362,-19.438765349623882],[-47.597591305416572,-19.438843188910948],[-47.597529350745816,-19.438904744185422],[-47.597454078693339,-19.438976910775157],[-47.597342775646183,-19.439044087800539],[-47.597265983875346,-19.439102174878254],[-47.597168117844078,-19.439061053376193],[-47.597100207707861,-19.438983097570343],[-47.597043904044057,-19.438893785575043],[-47.597035767276694,-19.438808774675973],[-47.596937563216144,-19.438743822330498],[-47.596878080509299,-19.438708115307659],[-47.596865841455006,-19.438700768586987],[-47.596813456420499,-19.4386616197175],[-47.596710546491458,-19.438614917382015],[-47.596624874490679,-19.438591749534925],[-47.596561285347924,-19.438594384701101],[-47.596459545534032,-19.438585985995054],[-47.596397800389703,-19.438552554235848],[-47.596332216562722,-19.438529547440545],[-47.596295022485144,-19.438483563754964],[-47.596245403314875,-19.438451684875609],[-47.596198122318754,-19.438425333173317],[-47.596141336619525,-19.438387237668714],[-47.596083862023924,-19.438353884619797],[-47.596029121817651,-19.438317352599846],[-47.596029045110527,-19.438317301407743],[-47.596020842728286,-19.438265673329344],[-47.596020745728552,-19.438265659842749],[-47.596017387289777,-19.438245029433123],[-47.596017522552408,-19.438244775815683],[-47.596011798150819,-19.438208746894194],[-47.595945418418822,-19.438145981467798],[-47.595872832504845,-19.438129777666227],[-47.595784066427676,-19.43812020406628],[-47.595684945772561,-19.438116011496618],[-47.595624283317257,-19.43817996861225],[-47.595558310615367,-19.43823185457051],[-47.595540191778767,-19.438304586756306],[-47.595551617582238,-19.438381887888625],[-47.595510452537219,-19.438453104171838],[-47.595450278422966,-19.438528208099381],[-47.595422501172102,-19.438589409952286],[-47.595342305373954,-19.438617836315146],[-47.595287288922215,-19.438680821289182],[-47.595267002929745,-19.438755854614197],[-47.595213606921895,-19.43882096100603],[-47.595188897832116,-19.438888053438852],[-47.595133189952264,-19.43903931531985],[-47.595329691270827,-19.439227152771974],[-47.59620821323464,-19.440045440795579],[-47.598035451464838,-19.439283863242363]]]]}},
{"type":"Feature","properties":{"id":17,"Area":0.3,"Porcent":1.06},"geometry":{"type":"MultiPolygon","coordinates":[[[[-47.60298222195609,-19.44018252576226],[-47.603180895984252,-19.43958315813072],[-47.60314763039765,-19.439584693465488],[-47.603115965117759,-19.439584693465488],[-47.603079981845156,-19.439601245770884],[-47.60303392325622,-19.439622835734447],[-47.602995780987264,-19.439648743690721],[-47.60295198599016,-19.439699414458243],[-47.602919496449339,-19.439712074250505],[-47.602884232842186,-19.439725028228644],[-47.602741072862969,-19.439780443221817],[-47.602639059315131,-19.43983723199262],[-47.602488718211994,-19.439875187903926],[-47.60243446411895,-19.439915019209124],[-47.602436345557059,-19.439918610581731],[-47.602383487906764,-19.439935733482532],[-47.602347695571289,-19.43996520952351],[-47.602396550558076,-19.440017105683232],[-47.602491709213027,-19.440085441093164],[-47.602885116806647,-19.440194650019315],[-47.6028953351857,-19.440331320839178],[-47.602933654107161,-19.440340900569545],[-47.602982191407669,-19.44018251569419],[-47.60298222195609,-19.44018252576226]]]]}},
{"type":"Feature","properties":{"id":10,"Area":1.9,"Porcent":6.68},"geometry":{"type":"MultiPolygon","coordinates":[[[[-47.603180895984252,-19.43958315813072],[-47.60298222195609,-19.44018252576226],[-47.603208911692953,-19.44025723759103],[-47.603269070160579,-19.440048524959774],[-47.603256171696096,-19.440035626495273],[-47.603281078995053,-19.439967610409685],[-47.60331173413222,-19.43986414932175],[-47.603364901635743,-19.439717579447176],[-47.603421901031403,-19.439548976192768],[-47.603423337990918,-19.43954514430062],[-47.603422060693539,-19.439499161594874],[-47.60342142204486,-19.439455094835196],[-47.603420144747481,-19.439375902397519],[-47.603417426990205,-19.438827038152692],[-47.603400871200321,-19.438400944402392],[-47.603399128485599,-19.437983564225721],[-47.603398257128234,-19.437484276456967],[-47.603394771698788,-19.437069510352384],[-47.603400300682175,-19.43700498221715],[-47.603399660637805,-19.437005288717273],[-47.603394267274474,-19.437069135601739],[-47.602836101051253,-19.437724252660576],[-47.602320318199183,-19.438316499657017],[-47.602319829918223,-19.438315898801257],[-47.603154158999146,-19.439509481800634],[-47.60317785634664,-19.439504090934854],[-47.603254140884559,-19.439490417291264],[-47.603273571851766,-19.439501212273044],[-47.603276450513576,-19.439514166251183],[-47.603272852186315,-19.439529998891128],[-47.603264935866342,-19.439545831531074],[-47.603240467240973,-19.439572459152803],[-47.603194408652037,-19.439582534469132],[-47.603180895984252,-19.43958315813072]]]]}}
]
}
