{
"type": "FeatureCollection",
"name": "reserva",
"crs": { "type": "name", "properties": { "name": "urn:ogc:def:crs:EPSG::4674" } },
"features": [
{"type":"Feature","properties":{"cod_tema":"ARL_PROPOSTA","nom_tema":"Reserva Legal Proposta","cod_imovel":"MG-3156908-A46DB1E697D14F029A65E60B54DD4755","num_area":10.2584,"ind_status":"AT","des_condic":"Aguardando analise","Area":10.548,"id":1},"geometry":{"type":"MultiPolygon","coordinates":[[[[-47.602169326039714,-19.440796920584962],[-47.602063615296039,-19.4407656598203],[-47.602061177470411,-19.440767067148609],[-47.602002678742338,-19.440753659989984],[-47.601920739740457,-19.440739770124228],[-47.601856180528245,-19.44068302845286],[-47.601668762932398,-19.440518307515461],[-47.601691786999439,-19.440456143695961],[-47.601759916311714,-19.440425876692434],[-47.601825705135909,-19.440463985527241],[-47.60183349848365,-19.440522452808942],[-47.601875640867561,-19.44058368164924],[-47.601932427641323,-19.440599511774682],[-47.601932762608897,-19.440599605146272],[-47.601935376218577,-19.440575755957919],[-47.601967041498469,-19.440519142275686],[-47.601974717929963,-19.44046156903952],[-47.6019756774839,-19.440403036249418],[-47.601992949454747,-19.440344503459315],[-47.60199486856262,-19.440301323532189],[-47.602020776518913,-19.44018329839805],[-47.602057239568481,-19.440133401593371],[-47.602103298157417,-19.44009981720561],[-47.602147437638479,-19.440073909249332],[-47.602198293997091,-19.440052799062737],[-47.602238595262406,-19.440034567537953],[-47.602281775189532,-19.440009619135612],[-47.602334550656018,-19.439976034747851],[-47.602383487906764,-19.439935733482532],[-47.602436345557059,-19.439918610581731],[-47.60243446411895,-19.439915019209124],[-47.602488718211994,-19.439875187903926],[-47.602639059315131,-19.43983723199262],[-47.602741072862969,-19.439780443221817],[-47.602884232842186,-19.439725028228644],[-47.602919496449339,-19.439712074250505],[-47.60295198599016,-19.439699414458243],[-47.602995780987264,-19.439648743690721],[-47.60303392325622,-19.439622835734447],[-47.603079981845156,-19.439601245770884],[-47.603115965117759,-19.439584693465488],[-47.60314763039765,-19.439584693465488],[-47.603194408652037,-19.439582534469132],[-47.603240467240973,-19.439572459152803],[-47.603264935866342,-19.439545831531074],[-47.603272852186315,-19.439529998891128],[-47.603276450513576,-19.439514166251183],[-47.603273571851766,-19.439501212273044],[-47.603254140884559,-19.439490417291264],[-47.60317785634664,-19.439504090934854],[-47.603026006936247,-19.439538634876552],[-47.602912559764093,-19.439564751499169],[-47.602822443952121,-19.439607156450293],[-47.60273297240154,-19.439607774163829],[-47.602672391330557,-19.439634713976925],[-47.602649670066782,-19.439668324449997],[-47.60261099900093,-19.439694288807615],[-47.602355209474887,-19.439718621002051],[-47.602222947574688,-19.439736466711953],[-47.602205102042177,-19.439738874619412],[-47.602004840698513,-19.439820667163858],[-47.601977326786674,-19.439831904197945],[-47.60197733098174,-19.439831915015525],[-47.601977296731206,-19.439831921741046],[-47.601831965538807,-19.439916210780531],[-47.601769225499972,-19.439914174704928],[-47.601621056995079,-19.439909365404517],[-47.60161890557427,-19.439909295133535],[-47.601615979921746,-19.439908605679062],[-47.601580784180797,-19.43990031090766],[-47.601342510747507,-19.439844156580641],[-47.601180771002589,-19.439805406547855],[-47.601159944697855,-19.439804683983279],[-47.600887410370085,-19.4397952330539],[-47.600898126952366,-19.439651665582915],[-47.600930227740321,-19.439650443966492],[-47.600908421489834,-19.439609494325893],[-47.600889776599765,-19.439561984227659],[-47.600868672291092,-19.439518311010435],[-47.600843496746677,-19.439482697622438],[-47.600825599270934,-19.439433405116976],[-47.600821097534556,-19.439423769697932],[-47.600876474152614,-19.439380889590272],[-47.600907402633702,-19.439356940140446],[-47.600956778497263,-19.439290821695717],[-47.600978181175151,-19.439234120850447],[-47.600979210475913,-19.439231393489063],[-47.600985388125373,-19.439215025682287],[-47.600986140698026,-19.439213031910278],[-47.60098433273253,-19.439204289752475],[-47.600976868000217,-19.439168207454955],[-47.600919886393065,-19.439133843968829],[-47.600870007423666,-19.439103762644386],[-47.60070841824983,-19.439034268351161],[-47.600519126545166,-19.438936445935894],[-47.600451337830698,-19.438862733884797],[-47.600455971305173,-19.438815402828926],[-47.600438599156398,-19.43875892120306],[-47.600380853907957,-19.438694715420233],[-47.60036010544291,-19.438601188921044],[-47.600323779347335,-19.438571096399873],[-47.600308995800582,-19.438558849730299],[-47.600204279465075,-19.438573090595849],[-47.600181580412297,-19.438553153710103],[-47.60008414337247,-19.438489201736179],[-47.600070714436001,-19.43844302089099],[-47.600057725793505,-19.438389821965657],[-47.600066523536846,-19.438343010027079],[-47.600071362867631,-19.438317257628313],[-47.600071794943979,-19.438310680330066],[-47.60007228894586,-19.438303150386016],[-47.600077320350906,-19.438226477080747],[-47.600069099264687,-19.438166561041985],[-47.600065352530052,-19.438139244036972],[-47.600054945006548,-19.438078192670588],[-47.600061865932311,-19.4380532077754],[-47.600104038022728,-19.437981588841868],[-47.600065723580812,-19.437918806489979],[-47.600035146148265,-19.437841514932256],[-47.599969688337829,-19.437807958867946],[-47.59989243854384,-19.437773013246648],[-47.599846640126067,-19.437758722472573],[-47.599817242080441,-19.437749548650459],[-47.599734699493659,-19.437713678306356],[-47.599614392786457,-19.437673824306692],[-47.599603045310189,-19.437732139032697],[-47.599597555584801,-19.43772931187732],[-47.599541340843089,-19.437662245694224],[-47.599538883222088,-19.437658905518539],[-47.59948387751912,-19.437584136578529],[-47.599447737529701,-19.437487169753918],[-47.599462486335248,-19.437362468535365],[-47.59947128419207,-19.437337528993496],[-47.599509074077311,-19.437230412083945],[-47.599610103124476,-19.437121684419502],[-47.599743915710079,-19.437039998392073],[-47.599895319371555,-19.43702815792453],[-47.600042588584408,-19.437020889778179],[-47.600155217469599,-19.436976693445921],[-47.600259889074053,-19.436974047823373],[-47.600366470309716,-19.43698348394042],[-47.600472129264489,-19.436993880460012],[-47.600568354254008,-19.437008038617844],[-47.600648121004774,-19.437016908187697],[-47.600713557755384,-19.437053338564979],[-47.600730730390502,-19.437062898856436],[-47.600804533371054,-19.437104303029631],[-47.600867982426479,-19.437132532845379],[-47.600958394428439,-19.437165504986122],[-47.601047994298739,-19.437180125402403],[-47.601115192968514,-19.437164104222365],[-47.601204477625302,-19.437145087975331],[-47.601283029256642,-19.437103987550955],[-47.601294603975255,-19.437098017084008],[-47.601325772548428,-19.437081938328273],[-47.601187224445326,-19.436909186246456],[-47.601163348702791,-19.436879416110084],[-47.601035558782776,-19.436720077524498],[-47.601035548720446,-19.436720064978029],[-47.600792654206835,-19.436416711008956],[-47.600733061769887,-19.436342643975525],[-47.600439576616694,-19.435977873280358],[-47.600231422816563,-19.435731506407414],[-47.600226851616398,-19.435726096021977],[-47.600189872822874,-19.435682328626324],[-47.600119548550381,-19.435599094156945],[-47.600047202452771,-19.436002577795819],[-47.599995101987403,-19.436326447485477],[-47.600022638313462,-19.436436754842511],[-47.600025692574029,-19.436448989859265],[-47.600059464268682,-19.436493783779227],[-47.60005944701858,-19.436493788378961],[-47.600059446408409,-19.436493788541664],[-47.600024702531094,-19.436503052987078],[-47.600024702468126,-19.436503052946147],[-47.599986242243801,-19.436513308290586],[-47.599986242234444,-19.43651330836855],[-47.599475505011377,-19.43664949538589],[-47.599475452123976,-19.436649509488213],[-47.599105298860273,-19.437047329837256],[-47.599027003852406,-19.437321941599098],[-47.599048415652668,-19.437533828273342],[-47.599048437332549,-19.437534042812867],[-47.599048590095997,-19.437535554527855],[-47.599052602091867,-19.437575256395544],[-47.599157213490841,-19.437727417618259],[-47.599164640447697,-19.437738220406938],[-47.599183313509776,-19.437765381079529],[-47.59917866926947,-19.437782106749154],[-47.599169928490127,-19.437813585596871],[-47.599155666984899,-19.437864946657793],[-47.599155643426329,-19.43786503150109],[-47.599155626581599,-19.437865092165335],[-47.599125257824866,-19.437854326088967],[-47.59912248191177,-19.437853341995591],[-47.599068938610621,-19.437834360274547],[-47.598821334914717,-19.437651607648895],[-47.598731770032373,-19.437585501133988],[-47.598640887590172,-19.437542801540921],[-47.598621035018567,-19.437533474142711],[-47.598263656295835,-19.437662677007694],[-47.598104348605723,-19.437803575630586],[-47.597717617958232,-19.437854799740389],[-47.597467640067798,-19.437769797799451],[-47.597467553041355,-19.437769809871778],[-47.597086334065693,-19.437822692835823],[-47.597086331557513,-19.437822692997006],[-47.596971861120487,-19.437838572360349],[-47.596950517821426,-19.437831420746026],[-47.596475106731546,-19.437672122188225],[-47.59625102488058,-19.437604496807566],[-47.596175092997903,-19.437581581419966],[-47.595946183018221,-19.43758629921599],[-47.595648391560871,-19.437736513054521],[-47.595634682873595,-19.437735610026653],[-47.595628978011227,-19.437735234232122],[-47.595424015304189,-19.437721732790848],[-47.59514903365698,-19.437745144504657],[-47.595010132837729,-19.437827901648291],[-47.594869473629103,-19.437752110829383],[-47.59482561451992,-19.437728478407202],[-47.594610288842659,-19.437726884167706],[-47.59441302949115,-19.437975051015197],[-47.594361553024491,-19.438326326358208],[-47.595101384779326,-19.439008912456941],[-47.595133189952264,-19.43903931531985],[-47.595188897832116,-19.438888053438852],[-47.595213606921895,-19.43882096100603],[-47.595267002929745,-19.438755854614197],[-47.595287288922215,-19.438680821289182],[-47.595342305373954,-19.438617836315146],[-47.595422501172102,-19.438589409952286],[-47.595450278422966,-19.438528208099381],[-47.595510452537219,-19.438453104171838],[-47.595551617582238,-19.438381887888625],[-47.595540191778767,-19.438304586756306],[-47.595558310615367,-19.43823185457051],[-47.595624283317257,-19.43817996861225],[-47.595684945772561,-19.438116011496618],[-47.595784066427676,-19.43812020406628],[-47.595872832504845,-19.438129777666227],[-47.595945418418822,-19.438145981467798],[-47.596011798150819,-19.438208746894194],[-47.596017522552408,-19.438244775815683],[-47.596017387289777,-19.438245029433123],[-47.596020745728552,-19.438265659842749],[-47.596020842728286,-19.438265673329344],[-47.596029045110527,-19.438317301407743],[-47.596083862023924,-19.438353884619797],[-47.596141336619525,-19.438387237668714],[-47.596198122318754,-19.438425333173317],[-47.596245403314875,-19.438451684875609],[-47.596295022485144,-19.438483563754964],[-47.596332216562722,-19.438529547440545],[-47.596397800389703,-19.438552554235848],[-47.596459545534032,-19.438585985995054],[-47.596561285347924,-19.438594384701101],[-47.596624874490679,-19.438591749534925],[-47.596710546491458,-19.438614917382015],[-47.596813456420499,-19.4386616197175],[-47.596865841455006,-19.438700768586987],[-47.596878080509299,-19.438708115307659],[-47.596937563216144,-19.438743822330498],[-47.597035767276694,-19.438808774675973],[-47.597043904044057,-19.438893785575043],[-47.597100207707861,-19.438983097570343],[-47.597168117844078,-19.439061053376193],[-47.597265983875346,-19.439102174878254],[-47.597342775646183,-19.439044087800539],[-47.597454078693339,-19.438976910775157],[-47.597529350745816,-19.438904744185422],[-47.597591305416572,-19.438843188910948],[-47.59765876162362,-19.438765349623882],[-47.597710186443649,-19.438714792851528],[-47.597799501694283,-19.438710287990812],[-47.597902442868673,-19.438690163798633],[-47.597958720497779,-19.438634719055578],[-47.597993881941825,-19.438566972757034],[-47.598057109070773,-19.438513078213173],[-47.598153743739765,-19.438448635732534],[-47.598254217759873,-19.438420161472738],[-47.598351489292092,-19.438366613466599],[-47.598441316777738,-19.438339471862001],[-47.598543994216683,-19.438313685710483],[-47.598635367516621,-19.438286965238504],[-47.598729876087198,-19.438260174513726],[-47.598823047097817,-19.438267688800863],[-47.598843064047998,-19.438269302772529],[-47.598945649582276,-19.438292330120341],[-47.599024294779021,-19.438324696146918],[-47.599027659121639,-19.438325140969464],[-47.599048564423313,-19.438327906149574],[-47.599108582748663,-19.438335844822117],[-47.599197325213233,-19.438321453369095],[-47.599338818647944,-19.438310113764551],[-47.599471238688594,-19.438307194514326],[-47.599473171894424,-19.438307430480197],[-47.599577292251006,-19.438320139492696],[-47.599613694672023,-19.438402605790319],[-47.599677999186312,-19.438467427592478],[-47.599706589125113,-19.438548963792126],[-47.599770262752465,-19.43859502852353],[-47.599869653074435,-19.438610045485724],[-47.599946336674662,-19.438669952591162],[-47.60000245169249,-19.438722418570563],[-47.600103243799886,-19.438801281509672],[-47.600177165097996,-19.438861120645186],[-47.600250577985271,-19.438904997548182],[-47.600302718724834,-19.438975781687766],[-47.600292173389093,-19.438981728317934],[-47.600328601084051,-19.439000149058018],[-47.6003660171951,-19.439019070325042],[-47.600437427090199,-19.439130072976099],[-47.600436452753776,-19.439160564867571],[-47.60043338502485,-19.439256518767948],[-47.60042429572551,-19.439383060410112],[-47.600423471553874,-19.439394540276833],[-47.600494563255054,-19.439485439530539],[-47.600524330788573,-19.439526441221805],[-47.600535526699389,-19.439525777705434],[-47.60060236627838,-19.439516010496977],[-47.600670842991377,-19.439489273264467],[-47.600736766928719,-19.439489069222915],[-47.600774094053634,-19.439460166299931],[-47.600798960934988,-19.439499527946552],[-47.600817476957907,-19.439539252470695],[-47.600838586820373,-19.439581363432698],[-47.600847079855136,-19.439633350802655],[-47.600833474531377,-19.439661417791005],[-47.600778500734656,-19.439664056433738],[-47.60074489716488,-19.439612968261279],[-47.600728337740456,-19.439614787789353],[-47.600688737465646,-19.439619139244957],[-47.600645691227214,-19.439620852793588],[-47.600597411801459,-19.439610217057599],[-47.600585204131548,-19.439610289176976],[-47.600557341407502,-19.439610453953122],[-47.600544299028009,-19.439610531718579],[-47.600490158385988,-19.43960888534825],[-47.600448834859414,-19.439626119221852],[-47.600475895251662,-19.439659354241456],[-47.600528303497633,-19.43968382068504],[-47.600574703023462,-19.439656049182958],[-47.600580809617107,-19.439657500318155],[-47.600626660187437,-19.439668395734177],[-47.600639258156832,-19.43971461912539],[-47.600648758356201,-19.43974218318656],[-47.600692630959195,-19.439849189311854],[-47.600640542241806,-19.439919505812153],[-47.600674903486343,-19.439977697837538],[-47.600692728739261,-19.439988587882752],[-47.600733843909126,-19.440013706532959],[-47.600765052554721,-19.440078527489568],[-47.600773224624326,-19.440095500386704],[-47.600797510747299,-19.440108985075724],[-47.600757009456707,-19.440154225387602],[-47.60075087981059,-19.440183045716783],[-47.600741146251941,-19.440228824520194],[-47.600734429042319,-19.440284687161714],[-47.600762166641779,-19.440354670653623],[-47.600693844546392,-19.440449248709285],[-47.600831698960526,-19.440565806978132],[-47.600882301899766,-19.440676462112794],[-47.600908346236999,-19.440812321708709],[-47.600953215059704,-19.440839059695808],[-47.600940885248605,-19.440857334379],[-47.600872622534588,-19.440958508943055],[-47.600989074719216,-19.440981925696896],[-47.601194056637929,-19.441079529490306],[-47.601240048209768,-19.44112563769588],[-47.601377333343592,-19.441263269587605],[-47.601512993467367,-19.441386488478798],[-47.601472680933306,-19.441539466221279],[-47.601659318628229,-19.441593046062309],[-47.601999991020087,-19.44146451721738],[-47.602261494617245,-19.441379172476886],[-47.602359383422574,-19.441198091898386],[-47.602388047740455,-19.441079733169204],[-47.602388854970457,-19.44107935702872],[-47.602407022970453,-19.440948547428736],[-47.60234092392929,-19.440903965165646],[-47.602321283125178,-19.440879411507073],[-47.602230856449538,-19.440839678573838],[-47.602228040169102,-19.440841552398219],[-47.602182941134103,-19.440825239981304],[-47.602169326039714,-19.440796920584962]]],[[[-47.603520305264084,-19.435649090497787],[-47.603474016683187,-19.436155753319106],[-47.603484521507113,-19.436044358415309],[-47.603574271315459,-19.435852659795543],[-47.60365879297963,-19.435686230539293],[-47.603795596085554,-19.43551195906678],[-47.603972481630159,-19.435310675516021],[-47.60412584052596,-19.435172129695374],[-47.604205134045955,-19.435067566811867],[-47.604217333049036,-19.435034455232088],[-47.604190756649487,-19.435018335120883],[-47.604144574709274,-19.434979124039568],[-47.604055260579607,-19.434947319495834],[-47.604002322207208,-19.434936731821356],[-47.603984548305263,-19.434963737474064],[-47.603757495363908,-19.435277440091429],[-47.603520305264084,-19.435649090497787]]],[[[-47.604031474637203,-19.434892437642045],[-47.604094035982243,-19.434915950630781],[-47.604157209391026,-19.43494906221056],[-47.604219511442452,-19.434984787862426],[-47.604252623022234,-19.43498609489847],[-47.604270485848161,-19.434924228525727],[-47.604284863244644,-19.434842756612323],[-47.604276585349702,-19.434755620876068],[-47.60427266424157,-19.434653672064645],[-47.604290962746184,-19.434556515718718],[-47.604312311001564,-19.434486807129712],[-47.6043789698398,-19.434406206573676],[-47.604438222140459,-19.434357410561372],[-47.604517515660454,-19.434300336654122],[-47.604586352892099,-19.434234984851926],[-47.604652576051656,-19.434173118479183],[-47.604684816274073,-19.434101231496772],[-47.604682637880664,-19.434027166120956],[-47.604684813328959,-19.433949720161646],[-47.604681534314551,-19.433953791639503],[-47.604045332785994,-19.434871381581619],[-47.604031474637203,-19.434892437642045]]]]}}
]
}
