{
"type": "FeatureCollection",
"name": "sede",
"crs": { "type": "name", "properties": { "name": "urn:ogc:def:crs:OGC:1.3:CRS84" } },
"features": [
{"type":"Feature","properties":{"id":1,"area":2.001},"geometry":{"type":"MultiPolygon","coordinates":[[[[-47.602933654107161,-19.440340900569545],[-47.6028953351857,-19.440331320839178],[-47.602885116806647,-19.440194650019315],[-47.602491709213027,-19.440085441093164],[-47.602396550558076,-19.440017105683232],[-47.602347695571289,-19.43996520952351],[-47.602334550656018,-19.439976034747851],[-47.602281775189532,-19.440009619135612],[-47.602238595262406,-19.440034567537953],[-47.602198293997091,-19.440052799062737],[-47.602147437638479,-19.440073909249332],[-47.602103298157417,-19.44009981720561],[-47.602057239568481,-19.440133401593371],[-47.602020776518913,-19.44018329839805],[-47.60199486856262,-19.440301323532189],[-47.601992949454747,-19.440344503459315],[-47.6019756774839,-19.440403036249418],[-47.601974717929963,-19.44046156903952],[-47.601967041498469,-19.440519142275686],[-47.601935376218577,-19.440575755957919],[-47.601932762608897,-19.440599605146272],[-47.601932427641323,-19.440599511774682],[-47.601875640867561,-19.44058368164924],[-47.60183349848365,-19.440522452808942],[-47.601825705135909,-19.440463985527241],[-47.601759916311714,-19.440425876692434],[-47.601691786999439,-19.440456143695961],[-47.601668762932398,-19.440518307515461],[-47.601856180528245,-19.44068302845286],[-47.601920739740457,-19.440739770124228],[-47.602002678742338,-19.440753659989984],[-47.602061177470411,-19.440767067148609],[-47.602063615296039,-19.4407656598203],[-47.602169326039714,-19.440796920584962],[-47.602182941134103,-19.440825239981304],[-47.602228040169102,-19.440841552398219],[-47.602230856449538,-19.440839678573838],[-47.602321283125178,-19.440879411507073],[-47.60234092392929,-19.440903965165646],[-47.602407022970453,-19.440948547428736],[-47.602388854970457,-19.44107935702872],[-47.602388047740455,-19.441079733169204],[-47.602359383422574,-19.441198091898386],[-47.602261494617245,-19.441379172476886],[-47.602261489234415,-19.441379174233635],[-47.602633169898077,-19.441387326449657],[-47.60275830172187,-19.441095979421341],[-47.60276058031193,-19.441090674132713],[-47.602795067341233,-19.440964860340593],[-47.602813063579362,-19.440967538352218],[-47.602814120935911,-19.440963778862276],[-47.602840842561697,-19.440967264291725],[-47.602841939623509,-19.440971835382598],[-47.602848713831271,-19.440972843449231],[-47.602893419239656,-19.440956238583265],[-47.602940679242778,-19.440802324248747],[-47.603019233031773,-19.440518444905624],[-47.603057966082666,-19.440527683981987],[-47.603058681902354,-19.440525195656413],[-47.603089469862503,-19.440532747420225],[-47.603089009580827,-19.440535088853107],[-47.603123652092741,-19.440543352204575],[-47.603289700752391,-19.440591889505086],[-47.603282356292446,-19.440618074101415],[-47.603374960352632,-19.440645216670781],[-47.60338262413692,-19.44062126734487],[-47.603446550836921,-19.440642258201585],[-47.603447307286089,-19.440640795733191],[-47.603475771626591,-19.440650671116639],[-47.603474285390121,-19.440653667756028],[-47.603494068333504,-19.440661821536743],[-47.603563217177594,-19.440693110606468],[-47.603564639013854,-19.440693753971292],[-47.603759595324917,-19.440225177206802],[-47.603636185570508,-19.440181379290266],[-47.603269343825332,-19.440048798624527],[-47.603269070160579,-19.440048524959774],[-47.603208911692953,-19.44025723759103],[-47.602982191407669,-19.44018251569419],[-47.602933654107161,-19.440340900569545]]],[[[-47.599012568983355,-19.44011119225182],[-47.598974119043426,-19.439962490826652],[-47.598958878762446,-19.439903550513463],[-47.598958074153785,-19.439903627404394],[-47.598955035224499,-19.439888686002071],[-47.598869213609063,-19.439556779202032],[-47.598842110422126,-19.439451960247013],[-47.598183146846154,-19.439626169008474],[-47.59817426088258,-19.439628518171258],[-47.598396247167479,-19.440229298074222],[-47.598279878813415,-19.440254114380274],[-47.598279878813415,-19.440254114380277],[-47.598439287747418,-19.440220119391469],[-47.598758053937161,-19.440156090761569],[-47.599035251696193,-19.440107190838081],[-47.599035251696193,-19.440107190838077],[-47.599012568983355,-19.44011119225182]]]]}}
]
}
